{"type":"FeatureCollection","name":"秦代郡县（华东局部）","attribution":"观沧海地图共享知识，作者 Circuare，CC BY-SA","source":"https://ageeye.app.ditushu.com/map/37030459f79ae1e854f6391c8029cdbdffa40/","features":[{"type":"Feature","properties":{"name":"范阳","kind":"Point","icon":"city"},"geometry":{"type":"Point","coordinates":[116.03838209308985,35.8494295886169]}},{"type":"Feature","properties":{"name":"东阿","kind":"Point","icon":"city"},"geometry":{"type":"Point","coordinates":[116.06839335583612,36.17920329537243]}},{"type":"Feature","properties":{"name":"茬平","kind":"Point","icon":"city"},"geometry":{"type":"Point","coordinates":[116.15934427447802,36.388793409244705]}},{"type":"Feature","properties":{"name":"博阳","kind":"Point","icon":"province"},"geometry":{"type":"Point","coordinates":[117.19870933976038,36.12445617594496]}},{"type":"Feature","properties":{"name":"嬴县","kind":"Point","icon":"city"},"geometry":{"type":"Point","coordinates":[117.56065415053062,36.351305633747245]}},{"type":"Feature","properties":{"name":"遂","kind":"Point","icon":"county"},"geometry":{"type":"Point","coordinates":[116.78716120393942,36.09423774014037]}},{"type":"Feature","properties":{"name":"卢县","kind":"Point","icon":"city"},"geometry":{"type":"Point","coordinates":[116.60280096397624,36.404341660865235]}},{"type":"Feature","properties":{"name":"谷城","kind":"Point","icon":"county"},"geometry":{"type":"Point","coordinates":[116.28356845117743,36.18188147935277]}},{"type":"Feature","properties":{"name":"牟","kind":"Point","icon":"county"},"geometry":{"type":"Point","coordinates":[117.75358577172382,36.22286806257449]}},{"type":"Feature","properties":{"name":"泰山","kind":"Point","icon":"mountain"},"geometry":{"type":"Point","coordinates":[117.11625240569636,36.261367472128754]}},{"type":"Feature","properties":{"name":"梁父山","kind":"Point","icon":"mountain"},"geometry":{"type":"Point","coordinates":[117.44596644710231,36.04852282761758]}},{"type":"Feature","properties":{"name":"谷城山","kind":"Point","icon":"mountain"},"geometry":{"type":"Point","coordinates":[116.31859653442831,36.13151044358207]}},{"type":"Feature","properties":{"name":"郚","kind":"Point","icon":"county"},"geometry":{"type":"Point","coordinates":[118.92531654545672,36.31705989671414]}},{"type":"Feature","properties":{"name":"高密","kind":"Point","icon":"city"},"geometry":{"type":"Point","coordinates":[119.52851332385694,36.34055780920755]}},{"type":"Feature","properties":{"name":"劳山","kind":"Point","icon":"mountain"},"geometry":{"type":"Point","coordinates":[120.63507306524664,36.19616154032957]}},{"type":"Feature","properties":{"name":"琅邪郡","kind":"Polygon","icon":null},"geometry":{"type":"Polygon","coordinates":[[[120.11218866337019,36.19549735488944],[120.12107570945696,36.23080618848737],[120.13044729270577,36.25737627124792],[120.12826981339681,36.29663450194385],[120.08352124685898,36.32124394960525],[119.96703970784287,36.31924861509796],[119.7897794772796,36.288854224627286],[119.71608492419784,36.2490527873484],[119.65911916911323,36.201086770484544],[119.61261496906114,36.16003679534348],[119.57632550262471,36.130281059699755],[119.51409789831708,36.12804268824731],[119.47228968170006,36.14842587884779],[119.46442803825144,36.19190227901197],[119.48313436258933,36.24505827866548],[119.49913675435572,36.298087016253724],[119.48487157752815,36.31068398988246],[119.40098301926334,36.3076733941687],[119.30431815542315,36.28890885105212],[119.22547924678014,36.29263435366383],[119.12733218745085,36.30222176464976],[119.09178819075892,36.307500727330385],[119.0454191587116,36.31239095284445],[118.9801064243876,36.28049505554361],[118.98010642438742,36.28049505554363],[118.9801064243876,36.28049505554361],[118.9375584665779,36.216917830765475],[118.8999732281324,36.19591675178376],[118.84109386515195,36.17989705980487],[118.78276335479023,36.15256597041332],[118.72347629644585,36.14502147915038],[118.64784346916613,36.18509141491994],[118.58608326204622,36.22841288503938],[118.50734870506409,36.25986355856461],[118.40408150344997,36.29052657163091],[118.33667736523755,36.3053549408422],[118.24598577042187,36.29400191891927],[118.07516601907298,36.292477892850656],[118.0751660190728,36.292477892850684],[118.0751660190729,36.292477892850656],[118.06146544136031,36.235428306823884],[118.02690790340112,36.17390578103391],[117.95487114080477,36.113044529328995],[117.91287007375655,36.06066361060632],[117.91347354139626,35.99825489129434],[117.92185982237297,35.903738948727785],[117.89836305969679,35.84340804409544],[117.84744637390199,35.76714266434198],[117.82395265927677,35.71626319779778],[117.82005806780627,35.633522921337104],[117.74565375928334,35.544333461966595],[117.64777627928868,35.40719354141924],[117.55773657058826,35.30180693396663],[117.54212418560662,35.18990098771328],[117.63616868118123,35.061842108366804],[117.6088057342816,34.949645339059835],[117.63231413821293,34.914355547708574],[117.67927833228035,34.97209552323122],[117.7575701848293,35.03941358946508],[117.85545174632804,35.10027838190305],[118.00817330614626,35.132296429341494],[118.14523928977043,35.10988495917283],[118.23530765510687,35.052230549778386],[118.31753662304897,34.991334230154166],[118.40367859725359,34.962474678388595],[118.5720133862911,34.82125484972533],[118.67380215059217,34.79876838287755],[118.80692709641937,34.818042827697795],[118.97137274455649,34.82767856333928],[119.09273984079748,34.818042827697795],[119.18115941357658,34.83089025588222],[119.19936092194405,34.92012694936428],[119.21152670127398,35.02165793616739],[119.25691914505484,35.068672821398394],[119.31136210440368,35.08351487705455],[119.37789845142632,35.09340831346269],[119.38699428412934,35.120610033802805],[119.41433135152272,35.25403436691931],[119.48700039251747,35.33794717125698],[119.52935899569137,35.35028108103359],[119.55359281615317,35.38480755171462],[119.57476682184428,35.38480755171462],[119.59299272014064,35.45628689869662],[119.6111592426627,35.47106902597586],[119.65056631710361,35.54248354108919],[119.65061361967985,35.58432221246802],[119.67786814887663,35.60646460665642],[119.70206632823738,35.60154452295286],[119.75052839252163,35.64581604949209],[119.77167700237247,35.62122332022366],[119.771627924239,35.58186162624809],[119.79271878717246,35.591744044767225],[119.81087945259353,35.63354342337952],[119.83206515465821,35.67040985916159],[119.85021154180187,35.658122648875214],[119.85625121207272,35.626168406823155],[119.86834512332453,35.60895779397244],[119.91070165747782,35.63108514856224],[119.9318810843248,35.6433758822255],[119.91979539109666,35.680238473846686],[119.91677970460066,35.70480552314751],[119.92890740016817,35.773559133257265],[119.9531122408477,35.77846817963535],[120.00148958729775,35.717086643073856],[120.02871505188021,35.714630547370106],[120.03478365991222,35.751465246040745],[120.04387437301867,35.78092260648689],[120.04388923240408,35.810370717922254],[120.05299457325908,35.86678705938892],[120.12260801867569,35.9084642211795],[120.16194112698713,35.90601313841653],[120.17104292764148,35.945222733784234],[120.21945813306141,35.94767278589377],[120.26183059964514,35.96237174515283],[120.30419500784502,35.964821346100535],[120.32843276727743,36.00400619202735],[120.30423387882063,36.01624807000011],[120.26185511774138,35.996660291052684],[120.24670797752361,35.97216976214647],[120.23160187226486,36.006454696662026],[120.18316824214668,35.97951759793118],[120.19229688804228,36.05785838580136],[120.12573535845446,36.08232632456345],[120.09549874170936,36.12879760482419],[120.11218866337013,36.19549735488941],[120.11218866337019,36.19549735488944]]]}},{"type":"Feature","properties":{"name":"琅邪","kind":"Point","icon":"province"},"geometry":{"type":"Point","coordinates":[119.85429239904346,35.704619972664446]}},{"type":"Feature","properties":{"name":"莒县","kind":"Point","icon":"city"},"geometry":{"type":"Point","coordinates":[118.83204062696271,35.589259017117946]}},{"type":"Feature","properties":{"name":"赣榆","kind":"Point","icon":"city"},"geometry":{"type":"Point","coordinates":[119.17725189666987,34.96680144475982]}},{"type":"Feature","properties":{"name":"琅邪台","kind":"Point","icon":"county"},"geometry":{"type":"Point","coordinates":[119.90264423010153,35.645821490081836]}},{"type":"Feature","properties":{"name":"介根","kind":"Point","icon":"county"},"geometry":{"type":"Point","coordinates":[119.97456968879334,36.263538598217785]}},{"type":"Feature","properties":{"name":"诸","kind":"Point","icon":"county"},"geometry":{"type":"Point","coordinates":[119.29322673809293,35.94870439586348]}},{"type":"Feature","properties":{"name":"蒙","kind":"Point","icon":"county"},"geometry":{"type":"Point","coordinates":[117.85424730535298,35.69808168975508]}},{"type":"Feature","properties":{"name":"费","kind":"Point","icon":"county"},"geometry":{"type":"Point","coordinates":[117.94557514403104,35.38594539838578]}},{"type":"Feature","properties":{"name":"南城","kind":"Point","icon":"county"},"geometry":{"type":"Point","coordinates":[117.67384963997819,35.16560206138724]}},{"type":"Feature","properties":{"name":"启阳","kind":"Point","icon":"county"},"geometry":{"type":"Point","coordinates":[118.3617378209411,35.14916210701467]}},{"type":"Feature","properties":{"name":"阳","kind":"Point","icon":"county"},"geometry":{"type":"Point","coordinates":[118.47361196397695,35.40415781103901]}},{"type":"Feature","properties":{"name":"东海郡","kind":"Polygon","icon":null},"geometry":{"type":"Polygon","coordinates":[[[119.18115941357658,34.830890255882196],[119.0927398407975,34.818042827697795],[118.97137274455653,34.82767856333926],[118.80692709641939,34.818042827697795],[118.67380215059221,34.798768382877526],[118.5720133862911,34.82125484972528],[118.40367859725349,34.962474678388546],[118.31753662304885,34.99133423015414],[118.23530765510688,35.052230549778365],[118.1452392897704,35.10988495917283],[118.00817330614628,35.13229642934147],[117.85545174632804,35.100278381903024],[117.75757018482925,35.03941358946505],[117.67927833228035,34.97209552323122],[117.63231413821296,34.914355547708546],[117.70754873797672,34.693351505942815],[117.75125949390593,34.580658198170966],[117.83866122404238,34.489450836711605],[117.85904779898193,34.412579845950845],[117.84739032576455,34.34767395082401],[117.74544111988052,34.19365515245959],[117.72796853925112,34.13342759395976],[117.74835596503375,34.07557540006604],[117.79494967365613,34.041813042515706],[118.01916806871124,33.998387809071666],[118.37441640148636,33.98390861218325],[118.45591730461747,33.93562976040693],[118.48788922125375,33.85350329688823],[118.46746087176011,33.783402177834176],[118.43244999708993,33.66726761164193],[118.42714329589327,33.569607798582446],[118.45912608850409,33.47489693014586],[118.54936351568622,33.387394967232844],[118.57263542852914,33.34848166067241],[118.54930110212327,33.304686895413994],[118.4123967102141,33.280348564267136],[118.30462150056032,33.253569882619125],[118.18811392547293,33.224348993490665],[118.10363405961641,33.153698355574555],[118.025001591822,33.13176267248811],[117.99879475410364,33.139075072969185],[117.93181595479587,33.13176267248811],[117.90560878158657,33.14151242733668],[117.87939773309826,33.11957421396207],[117.90268694008083,33.06592830937019],[117.87647533087481,33.01957589157281],[117.83279115610955,32.88772701663645],[117.82405588596347,32.829023704487795],[117.8386107688736,32.804574213564365],[117.83860534968784,32.72385134410664],[117.87938888799069,32.64994078517175],[117.97255927265525,32.61562981533667],[118.14433917086052,32.58866355364451],[118.316128200068,32.59601865532715],[118.45007936123683,32.62053204962365],[118.51703795252097,32.605824679848],[118.56651180766083,32.57395185079752],[118.59849618636527,32.51999184637179],[118.60137824886507,32.48318554706107],[118.63047928266757,32.468459537217775],[118.67124777713488,32.4807313505368],[118.68870051138836,32.46355042429745],[118.68282856545625,32.40707971691867],[118.69771598777156,32.35252454964893],[118.68889949602408,32.26149913361406],[118.67720279683611,32.204877693755996],[118.66843374629599,32.16547167876183],[118.68294459866019,32.11126541226469],[118.71643107045698,32.10912275753945],[118.74011170324202,32.16431279620905],[118.7756479847988,32.229505340970505],[118.8527101579029,32.25122846250593],[118.93175987696839,32.24788669549583],[119.01278308463304,32.25791172187377],[119.14716696761128,32.24788669549583],[119.24004517865859,32.22616297914253],[119.33094663887188,32.22114926489096],[119.42778102362165,32.229505340970505],[119.47917991176372,32.26626528100887],[119.53651321405097,32.303014138433475],[119.60373478656197,32.33975190012863],[119.71441415706474,32.33641256245657],[119.82706559783028,32.329733611726375],[119.9179479344164,32.29967379151732],[119.96139799635728,32.27461826769476],[120.04244313093032,32.287981855313554],[120.10173283227195,32.287981855313554],[120.24198303898848,32.244544836948165],[120.33884568340798,32.261253214211855],[120.42783543389156,32.2929928226237],[120.45365036266963,32.3581166159849],[120.51708698230266,32.3914998879644],[120.57836037893887,32.438221017149964],[120.66534118249399,32.484924095165475],[120.70686214840784,32.52994208534765],[120.70291313464882,32.56494444077217],[120.66535011219621,32.58494121025182],[120.62383009456931,32.58993988223907],[120.58626317880396,32.624924754190054],[120.56253370083942,32.66656009282491],[120.48145577093743,32.69819325727584],[120.41618491317661,32.753115146596876],[120.35286409663954,32.8578956695439],[120.33136404776457,32.9220052198204],[120.34136141547177,33.17744791655841],[120.24858179756828,33.32154908830327],[120.14914632411426,33.41565952828862],[120.01322272118445,33.592572837794705],[119.9270087800776,33.683673109475336],[119.81756712516848,33.78571794102061],[119.76449834203783,33.8325686428155],[119.65500665769747,33.994997949686486],[119.5952918247887,34.033501636417846],[119.518948047321,34.15716229131722],[119.45257428679842,34.21756233862324],[119.38948832328454,34.316318902417706],[119.39277512867746,34.36840038439681],[119.33630307632455,34.48069231073371],[119.20477524414721,34.513980988887276],[119.18430245157899,34.63410172908116],[119.18115941357661,34.83089025588222],[119.18115941357658,34.830890255882196]]]}},{"type":"Feature","properties":{"name":"郯县","kind":"Point","icon":"province"},"geometry":{"type":"Point","coordinates":[118.31913701215,34.64801915317295]}},{"type":"Feature","properties":{"name":"襄贲","kind":"Point","icon":"city"},"geometry":{"type":"Point","coordinates":[118.05280017556507,34.6982790317918]}},{"type":"Feature","properties":{"name":"兰陵","kind":"Point","icon":"city"},"geometry":{"type":"Point","coordinates":[117.86037622350831,34.74922530750156]}},{"type":"Feature","properties":{"name":"缯县","kind":"Point","icon":"city"},"geometry":{"type":"Point","coordinates":[117.89614798854221,34.92232074576219]}},{"type":"Feature","properties":{"name":"朐县","kind":"Point","icon":"city"},"geometry":{"type":"Point","coordinates":[119.12847996792065,34.54466634523297]}},{"type":"Feature","properties":{"name":"下邳","kind":"Point","icon":"city"},"geometry":{"type":"Point","coordinates":[117.91295432739312,34.13037313972496]}},{"type":"Feature","properties":{"name":"淩县","kind":"Point","icon":"city"},"geometry":{"type":"Point","coordinates":[118.62215793892521,33.76285470601635]}},{"type":"Feature","properties":{"name":"淮阴","kind":"Point","icon":"city"},"geometry":{"type":"Point","coordinates":[118.96327237706835,33.5490970465068]}},{"type":"Feature","properties":{"name":"盱台","kind":"Point","icon":"city"},"geometry":{"type":"Point","coordinates":[118.5660794114541,33.10907662390118]}},{"type":"Feature","properties":{"name":"东阳","kind":"Point","icon":"city"},"geometry":{"type":"Point","coordinates":[118.81620084340352,32.9389040433231]}},{"type":"Feature","properties":{"name":"堂邑","kind":"Point","icon":"city"},"geometry":{"type":"Point","coordinates":[118.79462211858302,32.41898019485623]}},{"type":"Feature","properties":{"name":"广陵","kind":"Point","icon":"city"},"geometry":{"type":"Point","coordinates":[119.39874646218308,32.41738566407214]}},{"type":"Feature","properties":{"name":"司吾","kind":"Point","icon":"county"},"geometry":{"type":"Point","coordinates":[118.34477456777917,34.19195591581485]}},{"type":"Feature","properties":{"name":"高邮亭","kind":"Point","icon":"county"},"geometry":{"type":"Point","coordinates":[119.47588532238603,32.79927743226172]}},{"type":"Feature","properties":{"name":"泗水郡","kind":"Polygon","icon":null},"geometry":{"type":"Polygon","coordinates":[[[117.88824145267724,33.04038603232937],[117.90268694008073,33.06592830937025],[117.8793977330982,33.11957421396209],[117.9056087815866,33.14151242733671],[117.93181595479588,33.13176267248813],[117.99879475410374,33.139075072969206],[118.02500159182212,33.13176267248813],[118.1036340596165,33.153698355574555],[118.18811392547308,33.224348993490715],[118.30462150056032,33.253569882619175],[118.41239671021408,33.280348564267136],[118.5493011021232,33.30468689541402],[118.57263542852904,33.348481660672434],[118.54936351568632,33.38739496723287],[118.45912608850404,33.47489693014592],[118.42714329589337,33.569607798582446],[118.43244999708998,33.66726761164199],[118.46746087176011,33.783402177834226],[118.48788922125381,33.85350329688818],[118.48788922125384,33.85350329688818],[118.45591730461761,33.935629760406904],[118.37441640148639,33.98390861218327],[118.0191680687112,33.998387809071644],[117.79494967365606,34.041813042515706],[117.74835596503381,34.07557540006604],[117.72796853925112,34.13342759395976],[117.74544111988068,34.19365515245959],[117.8473903257646,34.34767395082401],[117.85904779898199,34.412579845950845],[117.8386612240424,34.489450836711576],[117.8386612240424,34.489450836711626],[117.75125949390589,34.580658198170994],[117.70754873797667,34.69335150594284],[117.64191119910973,34.68232936565812],[117.57160896936665,34.70380088907986],[117.35866494851041,34.7995450015396],[116.98090984543336,34.86882390750082],[116.81206714410013,34.93970605861782],[116.72994364792093,34.92487413617525],[116.61138468876244,34.93805816864738],[116.54507436369843,34.91168848151379],[116.45666406399793,34.89355555866886],[116.41650000902257,34.81769378744179],[116.4084818981643,34.759937042493895],[116.37433814249272,34.735174685845884],[116.374352772236,34.69554311464392],[116.32816738240152,34.65589703326541],[116.32216106417295,34.611277866904246],[116.36839306330846,34.51867602526446],[116.39251708253185,34.44751766704407],[116.40058179909197,34.349806509022606],[116.45279920969854,34.295116610120644],[116.51102212859975,34.2918011983116],[116.57928325035144,34.281854364987865],[116.60939848190331,34.25864160068233],[116.56925159756513,34.21054250159466],[116.54316269880516,34.15080419504251],[116.50874427365198,34.05477728283154],[116.47218062448862,33.950545139576825],[116.24139221854529,33.75317633720358],[116.18427548780221,33.72087998482133],[116.07688316916126,33.69997724393702],[115.87579530726573,33.69237525407013],[115.74301983253885,33.67716968586811],[115.65389412116555,33.69427580118411],[115.65391142139644,33.650554847437874],[115.6333710023191,33.591598939603614],[115.65396782219663,33.50786513974498],[115.69511658668553,33.433593241893284],[115.79563790273242,33.40120266295225],[115.90756502260821,33.36294441415791],[116.15670052627739,33.11786970941297],[116.21839503718215,33.02017635400122],[116.33947247804062,32.86484190211983],[116.36913473560082,32.76692927404808],[116.49014087568305,32.60355358237629],[116.52663507390099,32.51504083014988],[116.57234692324384,32.547760006763546],[116.62031954872063,32.54583560687109],[116.69116712319814,32.57854602390282],[116.74147832489412,32.63240169325488],[116.68897362437448,32.68238786622005],[116.70726979606142,32.70160749947502],[116.73697906428677,32.707372758726116],[116.7438683522358,32.743879303242906],[116.8398090414201,32.71505931809041],[116.87631507093766,32.66700983168694],[116.97457632223332,32.67854355153779],[117.04084447256889,32.68430997506526],[117.08655749481082,32.695841949082265],[117.07750371292528,32.75924698263913],[117.10498056791981,32.79957727206969],[117.13248197583182,32.855247958707324],[117.19189515099904,32.851409477790675],[117.2102156735451,32.876357280204004],[117.16915447719627,32.9281543861591],[117.22632856540584,32.95116770535557],[117.33146989701038,32.9530852702245],[117.44348936047363,32.96650731190544],[117.45493856559658,32.9780106478941],[117.54636233584057,32.976093506732056],[117.58512025361082,32.92623639788224],[117.62419039624774,32.92240032365804],[117.6516055937968,32.90897303851822],[117.67675760854148,32.92240032365804],[117.68595172154,32.9818448324009],[117.72940488736336,33.00868047097883],[117.75915692295185,33.04700600094989],[117.77058820127698,33.04892193454433],[117.80485691773535,33.029761128720054],[117.88824145267724,33.04038603232937]]]}},{"type":"Feature","properties":{"name":"相县","kind":"Point","icon":"province"},"geometry":{"type":"Point","coordinates":[116.66516863757754,34.00260734702198]}},{"type":"Feature","properties":{"name":"萧县","kind":"Point","icon":"city"},"geometry":{"type":"Point","coordinates":[116.89504994406389,34.23661217702295]}},{"type":"Feature","properties":{"name":"沛县","kind":"Point","icon":"city"},"geometry":{"type":"Point","coordinates":[116.93386073352407,34.73523637580383]}},{"type":"Feature","properties":{"name":"戚县","kind":"Point","icon":"city"},"geometry":{"type":"Point","coordinates":[117.11120181748072,34.80353933313356]}},{"type":"Feature","properties":{"name":"傅阳","kind":"Point","icon":"city"},"geometry":{"type":"Point","coordinates":[117.57643094037199,34.568512208476335]}},{"type":"Feature","properties":{"name":"留县","kind":"Point","icon":"city"},"geometry":{"type":"Point","coordinates":[117.09210168268967,34.595511319145096]}},{"type":"Feature","properties":{"name":"彭城","kind":"Point","icon":"city"},"geometry":{"type":"Point","coordinates":[117.1918078113497,34.25590581500283]}},{"type":"Feature","properties":{"name":"下相","kind":"Point","icon":"city"},"geometry":{"type":"Point","coordinates":[118.25139914314114,33.93847821003384]}},{"type":"Feature","properties":{"name":"取虑","kind":"Point","icon":"city"},"geometry":{"type":"Point","coordinates":[117.73545361345006,33.828988287370926]}},{"type":"Feature","properties":{"name":"僮县","kind":"Point","icon":"city"},"geometry":{"type":"Point","coordinates":[118.03838152536049,33.708510038707]}},{"type":"Feature","properties":{"name":"徐县","kind":"Point","icon":"city"},"geometry":{"type":"Point","coordinates":[118.25791267659655,33.32528419286305]}},{"type":"Feature","properties":{"name":"蕲县","kind":"Point","icon":"city"},"geometry":{"type":"Point","coordinates":[117.02153741868668,33.46058210022927]}},{"type":"Feature","properties":{"name":"符离","kind":"Point","icon":"city"},"geometry":{"type":"Point","coordinates":[117.11247415816237,33.694297289663254]}},{"type":"Feature","properties":{"name":"竹邑","kind":"Point","icon":"city"},"geometry":{"type":"Point","coordinates":[116.96234464063717,33.76455646675356]}},{"type":"Feature","properties":{"name":"铚县","kind":"Point","icon":"city"},"geometry":{"type":"Point","coordinates":[116.72943321637437,33.59898456155309]}},{"type":"Feature","properties":{"name":"灵璧","kind":"Point","icon":"county"},"geometry":{"type":"Point","coordinates":[116.67652685878164,33.93550151445795]}},{"type":"Feature","properties":{"name":"大泽乡","kind":"Point","icon":"county"},"geometry":{"type":"Point","coordinates":[117.08677441119998,33.512182818025565]}},{"type":"Feature","properties":{"name":"下城父","kind":"Point","icon":"county"},"geometry":{"type":"Point","coordinates":[116.24947949290578,33.48300351930364]}},{"type":"Feature","properties":{"name":"下蔡","kind":"Point","icon":"county"},"geometry":{"type":"Point","coordinates":[116.71832394637205,32.72931944751603]}},{"type":"Feature","properties":{"name":"垓下","kind":"Point","icon":"county"},"geometry":{"type":"Point","coordinates":[117.66507778117052,33.35631102121868]}},{"type":"Feature","properties":{"name":"泗水亭","kind":"Point","icon":"county"},"geometry":{"type":"Point","coordinates":[116.99006741520294,34.73683082652681]}},{"type":"Feature","properties":{"name":"丰邑","kind":"Point","icon":"county"},"geometry":{"type":"Point","coordinates":[116.5813603038155,34.69571728885682]}},{"type":"Feature","properties":{"name":"砀郡","kind":"Polygon","icon":null},"geometry":{"type":"Polygon","coordinates":[[[115.98094381271326,35.335783156731864],[115.9387189372113,35.259651324375525],[115.93751334373988,35.10285816670647],[115.95455494238752,34.98391688602821],[115.9325720357085,34.90346807792472],[115.88663071710621,34.84565984670893],[115.86751370706321,34.76518985473594],[115.838285424347,34.71724308263442],[115.7668520197071,34.71493608046758],[115.71365224933508,34.750824224561434],[115.66583176970691,34.793920233296944],[115.62219325468712,34.808953637607814],[115.5482025040564,34.86057081971574],[115.42387292465548,34.887074887973235],[115.29819795056613,34.94167853318779],[115.18584085078297,34.95682246034231],[115.08334413121614,35.005102966604035],[114.98229595912136,35.022945291865206],[114.87424339502442,35.007749531575584],[114.81248811893556,34.98231927647577],[114.739416061516,34.95417258328192],[114.63400494063929,34.94374170815727],[114.51648305090103,34.94699324939956],[114.42411499711483,34.96278097557066],[114.33094709237017,34.994952345593575],[114.2783592955415,35.01670074909252],[114.12466942621805,35.0004524254576],[114.12466942621805,35.00045242545765],[114.17242179035912,34.92057666218785],[114.17517657168737,34.819161392509976],[114.23074443005133,34.585732854044586],[114.2768727953927,34.53737932646972],[114.2768727953927,34.53737932646967],[114.36189783406306,34.51016197810493],[114.3782805456318,34.46341093125989],[114.37440658715187,34.433024946398106],[114.37440658715187,34.43302494639821],[114.40225604273975,34.40716474173828],[114.45795102117735,34.389920771490466],[114.52757467694589,34.32117027266742],[114.69466675683066,34.275123453981315],[114.8408455019301,34.18008318150513],[114.93482322848588,34.16567507570886],[115.07407151352838,34.19737010865184],[115.20982690513308,34.19737010865181],[115.35249229439559,34.12532110119267],[115.40469185726084,34.11090494146566],[115.51602879810439,34.05898923507527],[115.60301503420013,34.03013532709463],[115.66558977629994,33.95507560163949],[115.66542687261625,33.78742914061433],[115.65389412116546,33.69427580118409],[115.74301983253876,33.67716968586811],[115.8757953072656,33.69237525407013],[116.07688316916132,33.69997724393699],[116.18427548780207,33.72087998482131],[116.24139221854534,33.75317633720358],[116.47218062448844,33.9505451395768],[116.50874427365184,34.054777282831516],[116.54316269880499,34.15080419504249],[116.56925159756508,34.21054250159463],[116.60939848190324,34.25864160068233],[116.57928325035124,34.281854364987844],[116.51102212859962,34.2918011983116],[116.45279920969836,34.295116610120644],[116.40058179909194,34.349806509022606],[116.39251708253187,34.447517667044096],[116.36839306330842,34.51867602526444],[116.32216106417279,34.61127786690422],[116.32816738240136,34.65589703326536],[116.37435277223587,34.6955431146439],[116.37433814249258,34.735174685845884],[116.40848189816411,34.759937042493895],[116.41650000902257,34.81769378744179],[116.45666406399778,34.89355555866881],[116.54507436369835,34.91168848151379],[116.47854858959153,34.9809718228549],[116.44605068892234,35.06427164359766],[116.47526942231535,35.136405747367945],[116.48077993969628,35.286159115040554],[116.25265994179918,35.515554851101754],[116.21230559275394,35.42757879999635],[116.17678696549942,35.39893084932917],[116.13944814426459,35.42608992460123],[116.08390680488556,35.37412117488445],[116.02186078809206,35.33836670741978],[115.98094381271362,35.335783156731914],[115.98094381271326,35.335783156731864]]]}},{"type":"Feature","properties":{"name":"酂县","kind":"Point","icon":"city"},"geometry":{"type":"Point","coordinates":[116.12386743928928,33.96525544481349]}},{"type":"Feature","properties":{"name":"芒县","kind":"Point","icon":"city"},"geometry":{"type":"Point","coordinates":[116.37106608326972,33.98820096872177]}},{"type":"Feature","properties":{"name":"砀县","kind":"Point","icon":"city"},"geometry":{"type":"Point","coordinates":[116.41153822201932,34.16589705457742]}},{"type":"Feature","properties":{"name":"栗县","kind":"Point","icon":"city"},"geometry":{"type":"Point","coordinates":[116.13423104472707,34.23760706241119]}},{"type":"Feature","properties":{"name":"下邑","kind":"Point","icon":"city"},"geometry":{"type":"Point","coordinates":[116.35208970316282,34.440619089841334]}},{"type":"Feature","properties":{"name":"单父","kind":"Point","icon":"city"},"geometry":{"type":"Point","coordinates":[116.10917743404845,34.80208561493981]}},{"type":"Feature","properties":{"name":"昌邑","kind":"Point","icon":"city"},"geometry":{"type":"Point","coordinates":[116.10457414131339,35.1288006394831]}},{"type":"Feature","properties":{"name":"东缗","kind":"Point","icon":"city"},"geometry":{"type":"Point","coordinates":[116.3223164225322,35.07208875488704]}},{"type":"Feature","properties":{"name":"爰戚","kind":"Point","icon":"city"},"geometry":{"type":"Point","coordinates":[116.37324052912112,35.29064627332082]}},{"type":"Feature","properties":{"name":"祁","kind":"Point","icon":"county"},"geometry":{"type":"Point","coordinates":[116.17998057595823,34.43884955259809]}},{"type":"Feature","properties":{"name":"薛郡","kind":"Polygon","icon":null},"geometry":{"type":"Polygon","coordinates":[[[116.16951625529666,35.68422282106304],[116.18557356460987,35.765451372902696],[116.13108613612532,35.842575784538326],[116.11300889564532,35.897524718309256],[116.11114480304416,35.93685133524618],[116.18783520903385,36.04483687084919],[116.36992138471415,35.97378749115435],[116.48253252604351,35.92056247258082],[116.55319015744851,35.911445909536724],[116.61508482992882,35.93803683104487],[116.67126086369986,35.937930157614865],[116.71058055672636,35.89940573970493],[116.76469213433106,35.89355003272508],[116.86498674010349,35.90053113208705],[116.98985479179227,35.98024800563636],[117.09877995292962,36.00263689740848],[117.27235051254523,35.99490697091931],[117.34481007658445,35.94799396442034],[117.38435491960475,35.95303845790062],[117.54190820415371,35.986443034410705],[117.73631756766773,35.983160505317265],[117.82233487377071,35.995357807091025],[117.91347354139613,35.99825489129431],[117.92185982237291,35.90373894872776],[117.8983630596967,35.84340804409544],[117.84744637390192,35.76714266434201],[117.82395265927667,35.71626319779778],[117.82005806780627,35.633522921337104],[117.82005806780623,35.633522921337104],[117.7456537592833,35.54433346196662],[117.64777627928872,35.40719354141924],[117.55773657058832,35.30180693396663],[117.54212418560667,35.18990098771328],[117.63616868118118,35.061842108366804],[117.60880573428169,34.949645339059835],[117.63231413821288,34.9143555477086],[117.63231413821305,34.914355547708546],[117.70754873797678,34.69335150594284],[117.70754873797661,34.693351505942864],[117.6419111991098,34.68232936565812],[117.57160896936666,34.70380088907986],[117.3586649485104,34.79954500153962],[116.98090984543326,34.86882390750085],[116.81206714410007,34.93970605861782],[116.7299436479209,34.92487413617525],[116.6113846887624,34.9380581686474],[116.54507436369846,34.91168848151381],[116.47854858959151,34.9809718228549],[116.44605068892243,35.06427164359768],[116.4752694223154,35.136405747367974],[116.48077993969629,35.286159115040554],[116.25265994179914,35.515554851101754],[116.26099869646939,35.56063023212451],[116.22439462977889,35.65131798367013],[116.16951625529676,35.68422282106306],[116.16951625529666,35.68422282106304]]]}},{"type":"Feature","properties":{"name":"鲁县","kind":"Point","icon":"province"},"geometry":{"type":"Point","coordinates":[116.98495815418264,35.59375411598013]}},{"type":"Feature","properties":{"name":"瑕丘","kind":"Point","icon":"city"},"geometry":{"type":"Point","coordinates":[116.8232865304743,35.573862451812985]}},{"type":"Feature","properties":{"name":"平阳","kind":"Point","icon":"city"},"geometry":{"type":"Point","coordinates":[116.96782963830236,35.39657515515708]}},{"type":"Feature","properties":{"name":"无盐","kind":"Point","icon":"city"},"geometry":{"type":"Point","coordinates":[116.4374404343738,35.87646993663345]}},{"type":"Feature","properties":{"name":"张县","kind":"Point","icon":"city"},"geometry":{"type":"Point","coordinates":[116.27754794200506,35.83183759513534]}},{"type":"Feature","properties":{"name":"须昌","kind":"Point","icon":"city"},"geometry":{"type":"Point","coordinates":[116.2534471849243,35.94759000106767]}},{"type":"Feature","properties":{"name":"亢父","kind":"Point","icon":"city"},"geometry":{"type":"Point","coordinates":[116.55711824848399,35.17545562365598]}},{"type":"Feature","properties":{"name":"方与","kind":"Point","icon":"city"},"geometry":{"type":"Point","coordinates":[116.53292472929182,35.019652814125905]}},{"type":"Feature","properties":{"name":"邹县","kind":"Point","icon":"city"},"geometry":{"type":"Point","coordinates":[117.03228582355234,35.30002481380808]}},{"type":"Feature","properties":{"name":"滕县","kind":"Point","icon":"city"},"geometry":{"type":"Point","coordinates":[117.08032635562344,35.07817346864054]}},{"type":"Feature","properties":{"name":"胡陵","kind":"Point","icon":"city"},"geometry":{"type":"Point","coordinates":[116.85007416192511,34.943433569900925]}},{"type":"Feature","properties":{"name":"薛县","kind":"Point","icon":"city"},"geometry":{"type":"Point","coordinates":[117.18130715195505,34.898850260466006]}},{"type":"Feature","properties":{"name":"成","kind":"Point","icon":"county"},"geometry":{"type":"Point","coordinates":[117.17804973501093,35.89135440145047]}},{"type":"Feature","properties":{"name":"刚","kind":"Point","icon":"county"},"geometry":{"type":"Point","coordinates":[116.85237585190278,35.881300421337656]}},{"type":"Feature","properties":{"name":"桃","kind":"Point","icon":"county"},"geometry":{"type":"Point","coordinates":[116.60090841102041,35.89570830442868]}},{"type":"Feature","properties":{"name":"平陆","kind":"Point","icon":"county"},"geometry":{"type":"Point","coordinates":[116.49012616235005,35.82658757901232]}},{"type":"Feature","properties":{"name":"合","kind":"Point","icon":"county"},"geometry":{"type":"Point","coordinates":[117.36026260266209,35.162929537436725]}},{"type":"Feature","properties":{"name":"任城","kind":"Point","icon":"county"},"geometry":{"type":"Point","coordinates":[116.70842242953378,35.24998886459712]}},{"type":"Feature","properties":{"name":"郚","kind":"Point","icon":"county"},"geometry":{"type":"Point","coordinates":[117.4041304313889,35.55432154973632]}},{"type":"Feature","properties":{"name":"卞","kind":"Point","icon":"county"},"geometry":{"type":"Point","coordinates":[117.52246887658286,35.65708465445339]}},{"type":"Feature","properties":{"name":"衡山","kind":"Point","icon":"mountain"},"geometry":{"type":"Point","coordinates":[116.21108396937244,31.161008646235086]}},{"type":"Feature","properties":{"name":"九江郡","kind":"Polygon","icon":null},"geometry":{"type":"Polygon","coordinates":[[[115.71981973215692,29.81634599661824],[116.0493736953362,30.246506539781706],[116.44990851212336,30.822940093357026],[116.64257082905893,31.131571248100364],[116.57666003642306,31.24867565670787],[116.58680015836705,31.356976339791235],[116.50567918281523,31.46515242160801],[116.42962826823539,31.48677266450386],[116.33836717073959,31.564564161133518],[115.79080058576477,31.655238959144064],[115.69953948826897,31.702700016543897],[115.51701729327736,31.65955460313989],[115.46124662258549,31.78462102733367],[115.4916669884174,32.03854465217542],[115.60320832980118,32.27033385709859],[115.64376881757708,32.30890803335136],[115.67444872277119,32.409666973983825],[115.67826312659534,32.45659852805271],[115.72368391592964,32.48573005266884],[115.76548020588241,32.49434353329809],[115.77917818255314,32.464953211085074],[115.81768897169206,32.499977958258405],[115.83185700248643,32.53509851234486],[115.91221484683619,32.58456655031214],[115.94699471136494,32.584413105923545],[115.97499266342508,32.607727463523204],[116.03055393911431,32.5957640808039],[116.03724712745368,32.560571722112144],[116.09969535295365,32.53977896922463],[116.12018686558795,32.48984436291595],[116.14437585910662,32.469206570302035],[116.16501983992025,32.43977845121881],[116.192818258367,32.43672146461976],[116.21745152779117,32.47475017395061],[116.23483994701517,32.47467336462708],[116.28049931840224,32.53311804720355],[116.32912141373788,32.52410851961823],[116.3669692557115,32.47115652174196],[116.4120195563471,32.45042284951318],[116.45379673973132,32.45610572632501],[116.4745249683753,32.438410743196386],[116.4886879040548,32.47061883490363],[116.51996394793265,32.46754737998144],[116.52663507390103,32.51504083014985],[116.52663507390088,32.51504083014991],[116.52663507390099,32.51504083014988],[116.57234692324384,32.547760006763546],[116.62031954872064,32.54583560687109],[116.69116712319817,32.57854602390282],[116.74147832489412,32.63240169325488],[116.68897362437447,32.68238786622005],[116.70726979606142,32.70160749947502],[116.73697906428679,32.707372758726116],[116.7438683522358,32.743879303242906],[116.8398090414201,32.71505931809041],[116.87631507093766,32.66700983168694],[116.97457632223332,32.67854355153779],[117.04084447256888,32.68430997506526],[117.0865574948108,32.695841949082265],[117.07750371292528,32.75924698263913],[117.10498056791981,32.79957727206969],[117.13248197583182,32.855247958707324],[117.19189515099907,32.851409477790675],[117.21021567354508,32.876357280204004],[117.16915447719627,32.9281543861591],[117.22632856540584,32.95116770535557],[117.33146989701038,32.9530852702245],[117.44348936047362,32.96650731190544],[117.45493856559658,32.9780106478941],[117.54636233584057,32.976093506732056],[117.58512025361082,32.92623639788224],[117.62419039624774,32.92240032365804],[117.6516055937968,32.90897303851822],[117.67675760854146,32.92240032365804],[117.68595172153996,32.9818448324009],[117.72940488736337,33.00868047097883],[117.75915692295185,33.04700600094989],[117.77058820127698,33.04892193454433],[117.80485691773534,33.029761128720054],[117.88824145267722,33.04038603232937],[117.87647533087481,33.01957589157281],[117.83279115610955,32.88772701663645],[117.8240558859635,32.829023704487795],[117.8386107688736,32.804574213564365],[117.83860534968782,32.72385134410664],[117.87938888799069,32.64994078517175],[117.97255927265525,32.61562981533667],[118.14433917086052,32.58866355364451],[118.31612820006798,32.59601865532715],[118.45007936123685,32.62053204962365],[118.51703795252095,32.605824679848],[118.56651180766083,32.57395185079752],[118.59849618636527,32.51999184637179],[118.60137824886507,32.48318554706107],[118.63047928266757,32.468459537217775],[118.67124777713488,32.4807313505368],[118.68870051138836,32.46355042429745],[118.68282856545625,32.40707971691867],[118.69771598777156,32.35252454964893],[118.6888994960241,32.26149913361406],[118.67720279683611,32.204877693755996],[118.66843374629599,32.16547167876183],[118.68294459866019,32.11126541226469],[118.71643107045698,32.10912275753945],[118.64910806610773,31.988809518043777],[118.5305377509871,31.849687110663368],[118.4398663335419,31.609430021822426],[118.35268227830613,31.306000119898638],[118.11205429019225,31.210604130955232],[117.92722409309243,31.085250738062367],[117.78075488029636,31.007568025889594],[117.68659610064174,30.810089122891352],[117.48084173028533,30.76215413761717],[117.39365767504958,30.71719339834874],[117.24370110004408,30.660213023584706],[117.2123148401592,30.621207082202037],[117.21928956457806,30.555161212975648],[117.18441594248377,30.513108603269224],[117.0274846430594,30.50709960168997],[116.96819948549907,30.48606517208508],[116.9368132256142,30.368790161047965],[116.92983850119535,30.227271647965424],[116.86009125700673,30.145881504517703],[116.8112681860747,30.079513919352962],[116.71722432502756,30.04677916105751],[116.67886334072381,30.08299717112041],[116.59516664769748,30.125234759631763],[116.5289067657183,30.137299325578766],[116.54983093897489,30.212669438807108],[116.51146995467116,30.191571618507695],[116.469621608158,30.203628069531657],[116.45218479711085,30.17348417413892],[116.42079853722596,30.191571618507695],[116.43823534827311,30.22773654145855],[116.39987436396937,30.22773654145855],[116.38592491513167,30.272923997026165],[116.35802601745623,30.2578638212554],[116.31269030873361,30.24882660711821],[116.30571558431477,30.212669438807108],[116.3894122773411,30.158408767410872],[116.42777326164483,30.15539340943116],[116.39638700175995,30.125234759631763],[116.46613424594857,30.119201923777634],[116.44172271048255,30.09204960254183],[116.43823534827311,30.04677916105751],[116.4138238128071,30.034703546608867],[116.33012711978077,30.08299717112041],[116.27781668663933,30.125234759631763],[116.27432932442989,30.05885330353006],[116.23248097791672,30.037722588199276],[116.23945570233558,29.98940688873724],[116.19760735582243,30.043760395429175],[116.17668318256584,30.086014740333642],[116.14878428489038,30.079979509841852],[116.16273373372812,30.019606959125586],[116.13483483605268,29.98940688873724],[115.95697936337173,29.93502360893405],[115.97441617441886,29.89875156459728],[116.04416341860748,29.84129381893385],[116.00928979651317,29.79590907663138],[115.99882770988488,29.756558973865396],[115.90466893023026,29.732335842764325],[115.71981973215692,29.81634599661824]]]}},{"type":"Feature","properties":{"name":"寿春","kind":"Point","icon":"province"},"geometry":{"type":"Point","coordinates":[116.79901253770878,32.579461327204974]}},{"type":"Feature","properties":{"name":"曲阳","kind":"Point","icon":"city"},"geometry":{"type":"Point","coordinates":[117.17051727868082,32.656561615169366]}},{"type":"Feature","properties":{"name":"阴陵","kind":"Point","icon":"city"},"geometry":{"type":"Point","coordinates":[117.45228983037339,32.63316968462036]}},{"type":"Feature","properties":{"name":"钟离","kind":"Point","icon":"city"},"geometry":{"type":"Point","coordinates":[117.6705643422479,32.880145892794246]}},{"type":"Feature","properties":{"name":"东城","kind":"Point","icon":"city"},"geometry":{"type":"Point","coordinates":[117.86105846170203,32.46925502527912]}},{"type":"Feature","properties":{"name":"历阳","kind":"Point","icon":"city"},"geometry":{"type":"Point","coordinates":[118.37698003522364,31.71613635345817]}},{"type":"Feature","properties":{"name":"居巢","kind":"Point","icon":"city"},"geometry":{"type":"Point","coordinates":[116.9522427672157,30.83084425700492]}},{"type":"Feature","properties":{"name":"六县","kind":"Point","icon":"city"},"geometry":{"type":"Point","coordinates":[116.5672859028753,31.83421978062516]}},{"type":"Feature","properties":{"name":"灊","kind":"Point","icon":"county"},"geometry":{"type":"Point","coordinates":[116.4374836595205,31.545594548374194]}},{"type":"Feature","properties":{"name":"舒","kind":"Point","icon":"county"},"geometry":{"type":"Point","coordinates":[117.18352287902246,31.187835698860233]}},{"type":"Feature","properties":{"name":"乌江","kind":"Point","icon":"county"},"geometry":{"type":"Point","coordinates":[118.44330193237849,31.848743923150163]}},{"type":"Feature","properties":{"name":"鄣郡","kind":"Polygon","icon":null},"geometry":{"type":"Polygon","coordinates":[[[119.3152007630352,32.222017756133106],[119.24004517865862,32.22616297914253],[119.14716696761128,32.24788669549583],[119.01278308463304,32.25791172187377],[118.93175987696839,32.24788669549583],[118.8527101579029,32.25122846250593],[118.7756479847988,32.229505340970505],[118.74011170324202,32.16431279620905],[118.71643107045698,32.10912275753945],[118.64910806610771,31.988809518043777],[118.53053775098707,31.849687110663368],[118.43986633354191,31.609430021822426],[118.35268227830613,31.306000119898638],[118.44187178355183,31.263228479240208],[118.50157829258637,31.263228479240208],[118.55702005097562,31.179345324910887],[118.58687330549289,31.04059285594999],[118.64231506388214,31.025975543264074],[118.69775682227136,30.908956331996404],[118.71055107420733,30.76980997094302],[118.719080575498,30.579072746234107],[118.65937406646343,30.468860941782935],[118.59966755742887,30.41003024063739],[118.54849054968497,30.295944839216034],[118.52290204581301,30.189099486623014],[118.49304879129573,30.13378910104976],[118.39922427709857,30.100587982353158],[118.2542227551575,30.122723301549776],[118.04951472418188,30.100587982353158],[117.90024845159547,30.015690010272348],[117.81921818933428,29.878962439964848],[117.83627719191558,29.64201782733807],[117.78510018417168,29.252071165906926],[117.87892469836885,29.132933049287722],[118.04098522289122,29.12548232358863],[118.06230897611785,29.22602153269317],[118.18172199418696,29.322743874095014],[118.28407600967478,29.42308932271249],[118.39922427709857,29.497355456017495],[118.5186372951677,29.452802300665553],[118.64231506388214,29.374787195090953],[118.78305183517787,29.345051409246377],[118.96643611292687,29.385935876159596],[119.67011996940559,30.03046009775926],[119.68291422134158,30.148541565073185],[119.64453146553365,30.340122703391646],[119.81512149134667,30.6414705699933],[119.7852682368294,30.806446978699356],[119.71276747585885,31.00038983560038],[119.58056020585374,31.113645735046756],[119.41849968133138,31.17934531045557],[119.40997018133139,31.22676667684023],[119.44835293713933,31.263228466809075],[119.55497170327247,31.292387760109197],[119.62747246424301,31.30696402556216],[119.65732571876029,31.372529306840306],[119.57203070585378,31.41621409978346],[119.50805944617389,31.44532599924829],[119.43982343584868,31.485340095902295],[119.33320466971554,31.579850841830726],[119.33320466971554,31.648855852715556],[119.41423493197672,31.764959082659026],[119.45261768778467,31.82295615657447],[119.43982343584868,31.931602506416667],[119.28629241261696,32.12684260723974],[119.3152007630352,32.222017756133106]]]}},{"type":"Feature","properties":{"name":"鄣县","kind":"Point","icon":"province"},"geometry":{"type":"Point","coordinates":[119.64168377203005,30.73782736992093]}},{"type":"Feature","properties":{"name":"歙县","kind":"Point","icon":"city"},"geometry":{"type":"Point","coordinates":[118.46069112285983,29.87289213495023]}},{"type":"Feature","properties":{"name":"黟县","kind":"Point","icon":"city"},"geometry":{"type":"Point","coordinates":[118.01689755040051,29.944131078550125]}},{"type":"Feature","properties":{"name":"丹阳","kind":"Point","icon":"city"},"geometry":{"type":"Point","coordinates":[118.73682935408011,31.64680148241179]}},{"type":"Feature","properties":{"name":"秣陵","kind":"Point","icon":"city"},"geometry":{"type":"Point","coordinates":[118.83545014795995,31.83690618364147]}},{"type":"Feature","properties":{"name":"江乘","kind":"Point","icon":"city"},"geometry":{"type":"Point","coordinates":[119.0557032542916,32.10740822303603]}},{"type":"Feature","properties":{"name":"会稽郡","kind":"Polygon","icon":null},"geometry":{"type":"Polygon","coordinates":[[[118.04098522289122,29.12548232358863],[118.06230897611785,29.22602153269317],[118.18172199418696,29.322743874095014],[118.28407600967478,29.42308932271249],[118.39922427709857,29.497355456017495],[118.5186372951677,29.452802300665553],[118.64231506388215,29.374787195090953],[118.78305183517787,29.345051409246377],[118.96643611292687,29.385935876159596],[119.6701199694056,30.03046009775926],[119.68291422134159,30.148541565073185],[119.64453146553365,30.340122703391646],[119.81512149134664,30.6414705699933],[119.7852682368294,30.806446978699356],[119.71276747585885,31.00038983560038],[119.58056020585373,31.113645735046756],[119.41849968133138,31.17934531045557],[119.40997018133139,31.22676667684023],[119.44835293713933,31.263228466809075],[119.55497170327247,31.292387760109197],[119.62747246424301,31.30696402556216],[119.6573257187603,31.372529306840306],[119.57203070585378,31.41621409978346],[119.50805944617389,31.44532599924829],[119.43982343584867,31.485340095902295],[119.33320466971554,31.579850841830726],[119.33320466971554,31.648855852715556],[119.41423493197672,31.764959082659026],[119.45261768778467,31.82295615657447],[119.43982343584867,31.931602506416667],[119.28629241261696,32.12684260723974],[119.3152007630352,32.222017756133106],[119.38014384412114,32.18221850624322],[119.50845027431255,32.21156329873467],[119.56393413601694,32.21156329873467],[119.6679663767127,32.25263010488782],[119.80667603097369,32.20569509734009],[119.83788570318241,32.11175241222448],[119.93845020252162,31.994187996692418],[120.03554696050433,31.923576897992735],[120.15345016662617,31.897083744303398],[120.40659528565249,31.92946322944169],[120.53836945720043,31.88825099813905],[120.83659521386156,31.764503648971957],[120.9683693854095,31.755658207571308],[121.1070790396705,31.655350821736963],[121.22844998714886,31.525380405352738],[121.30820803834894,31.38338796558041],[121.36369190005334,31.28860687185889],[121.34982093462723,31.238215609267545],[121.38103060683596,31.193730394614075],[121.49546607160129,30.979910428439347],[121.59949831229702,30.792424020042517],[121.57175638144483,30.661263795213],[121.47465962346213,30.535899111761182],[121.29433707292284,30.42532454948087],[120.98917583354866,30.416353541834383],[120.86433714471377,30.35353340472545],[120.68401459417447,30.320611507745067],[120.53836945720043,30.272705358251045],[120.42740173379163,30.293667178299955],[120.33377271716546,30.26971044698266],[120.25054692460887,30.272705358251045],[120.1707888734088,30.2008022804595],[120.28175659681759,30.239756309806765],[120.39272432022638,30.23376438639966],[120.44820818193078,30.188813322352697],[120.54530493991348,30.188813322352697],[120.74643393859192,30.104849766514644],[120.88514359285291,30.098849636089476],[121.1209500050966,30.167829133732017],[121.27353062478369,30.152837691871685],[121.46078865803604,30.128846644895805],[121.5405467092361,30.104849766514644],[121.67925636349709,29.975766754698522],[121.8075627936885,29.96375048734615],[121.89078858624511,29.915670891200477],[121.96707889608865,29.88260269470269],[122.09538532628007,29.888615910265862],[122.13552299194947,29.887768198093344],[122.11494565175883,29.85757076234846],[122.028456380689,29.83293013453256],[121.91097618677648,29.78100365101886],[121.85257327356123,29.71139965273775],[121.80680099476687,29.64404492913152],[121.73781961239541,29.59835298348065],[121.71377084284462,29.571047859240547],[121.63070064435472,29.55238295381733],[121.58564845090773,29.549058625323447],[121.52692966571297,29.521505266367452],[121.50602342876577,29.533430784260304],[121.47836036403982,29.52419054101202],[121.45452291307471,29.472724514491542],[121.45500849569878,29.415363183332705],[121.50989774084012,29.485176397131035],[121.53447339896651,29.449121112262343],[121.5139751019355,29.4127466726882],[121.58627969390352,29.47362542891167],[121.65896726534656,29.48921365682888],[121.70030037519878,29.52269015219618],[121.76949974953936,29.54126490867888],[121.76987201529316,29.496007779202344],[121.80533356019754,29.479972775623157],[121.82552968248577,29.52546356556287],[121.84951734221895,29.54685363541599],[121.77650558658263,29.561103879420244],[121.80371789501453,29.600618889645638],[121.94875274489338,29.647492696048737],[121.96317843113948,29.605449186194058],[122.01881456750257,29.594020945210122],[121.93627443027664,29.541808632790683],[121.96803276744777,29.49993247801641],[121.96185241616327,29.442519948413224],[121.91029321800912,29.408723782220697],[121.94953472294564,29.324607778990845],[121.9326825503426,29.288159204084877],[122.00892794422364,29.289029719642645],[121.95805275427726,29.20381709867785],[121.84043548310491,29.187355076446632],[121.8153729805274,29.247531821002553],[121.83560272858031,29.290072526497816],[121.81404214121626,29.34722761620276],[121.79296295025506,29.36812940636175],[121.78998220083696,29.331849578811834],[121.79062930276368,29.283515524067464],[121.77080801888677,29.210747637120843],[121.74997563726299,29.213532878557302],[121.72571847662148,29.21325572393779],[121.69143351543622,29.18565218063927],[121.64931728267993,29.22447539932889],[121.65889227231467,29.28503320070589],[121.5436921388306,29.34414267926961],[121.43227375743689,29.379114873385035],[121.33894121087106,29.359929317709096],[121.21853275236413,29.29511422968218],[121.09411436588395,29.26951825989942],[120.91372226781786,29.279546762591263],[120.76974611112541,29.1584557239996],[120.59455392108161,29.01966370166081],[120.51102942369442,28.858411088651664],[120.4086064485615,28.758236093559415],[120.34205200867756,28.71994188995802],[120.09487431829068,28.75658518181689],[119.9733331033751,28.733552208934345],[119.75733448657326,28.714556263426815],[119.5072259173063,28.737811791128056],[119.29741995905998,28.713560224082265],[119.17590942225692,28.6931934630366],[119.05066272238071,28.715501143260724],[118.9540236335428,28.666100410520322],[118.8747937684037,28.491375093228342],[118.77067678312636,28.35364883355798],[118.69881937948823,28.28850352722338],[118.57090979659081,28.297426961388574],[118.52588448971147,28.264724652229173],[118.45844446150029,28.293198108365843],[118.5058183212856,28.363351270832588],[118.44428778574787,28.56291175575899],[118.43565174104228,28.699015932492724],[118.3724193894233,28.820973800752878],[118.24755254986452,28.974074323196675],[118.1306609104453,29.025840161238566],[118.05358201028734,29.067474277045815],[118.04098522289112,29.12548232358866],[118.04098522289122,29.12548232358863]]]}},{"type":"Feature","properties":{"name":"吴县","kind":"Point","icon":"province"},"geometry":{"type":"Point","coordinates":[120.66242943128348,31.31243902750784]}},{"type":"Feature","properties":{"name":"娄县","kind":"Point","icon":"city"},"geometry":{"type":"Point","coordinates":[121.02343055110151,31.38061764402622]}},{"type":"Feature","properties":{"name":"曲阿","kind":"Point","icon":"city"},"geometry":{"type":"Point","coordinates":[119.53625166043662,31.996735497077758]}},{"type":"Feature","properties":{"name":"丹徒","kind":"Point","icon":"city"},"geometry":{"type":"Point","coordinates":[119.53289038644031,32.167973814570416]}},{"type":"Feature","properties":{"name":"阳羡","kind":"Point","icon":"city"},"geometry":{"type":"Point","coordinates":[119.83044084529456,31.283476678826972]}},{"type":"Feature","properties":{"name":"乌程","kind":"Point","icon":"city"},"geometry":{"type":"Point","coordinates":[120.0538505122032,30.762509478844457]}},{"type":"Feature","properties":{"name":"由拳","kind":"Point","icon":"city"},"geometry":{"type":"Point","coordinates":[120.79252251710899,30.665209460358586]}},{"type":"Feature","properties":{"name":"海盐","kind":"Point","icon":"city"},"geometry":{"type":"Point","coordinates":[121.34058230555314,30.79249313314568]}},{"type":"Feature","properties":{"name":"余杭","kind":"Point","icon":"city"},"geometry":{"type":"Point","coordinates":[119.91720240105404,30.223745387102387]}},{"type":"Feature","properties":{"name":"钱唐","kind":"Point","icon":"city"},"geometry":{"type":"Point","coordinates":[120.05647608141747,30.216149880890107]}},{"type":"Feature","properties":{"name":"山阴","kind":"Point","icon":"city"},"geometry":{"type":"Point","coordinates":[120.56551759601,29.98896960877833]}},{"type":"Feature","properties":{"name":"句章","kind":"Point","icon":"city"},"geometry":{"type":"Point","coordinates":[121.39452981830418,29.899886381650816]}},{"type":"Feature","properties":{"name":"鄞县","kind":"Point","icon":"city"},"geometry":{"type":"Point","coordinates":[121.54452210730643,29.68545513940641]}},{"type":"Feature","properties":{"name":"乌伤","kind":"Point","icon":"city"},"geometry":{"type":"Point","coordinates":[120.06413575219851,29.305031566015103]}},{"type":"Feature","properties":{"name":"诸暨","kind":"Point","icon":"city"},"geometry":{"type":"Point","coordinates":[120.19226465330328,29.714901103112005]}},{"type":"Feature","properties":{"name":"大末","kind":"Point","icon":"city"},"geometry":{"type":"Point","coordinates":[119.20114525588157,29.005580316487485]}},{"type":"Feature","properties":{"name":"会稽山","kind":"Point","icon":"mountain"},"geometry":{"type":"Point","coordinates":[120.67565607471694,29.860524538364892]}},{"type":"Feature","properties":{"name":"番阳","kind":"Point","icon":"province"},"geometry":{"type":"Point","coordinates":[116.88017895974632,29.120906294037564]}},{"type":"Feature","properties":{"name":"余干","kind":"Point","icon":"county"},"geometry":{"type":"Point","coordinates":[116.69808693547385,28.71196244785293]}},{"type":"Feature","properties":{"name":"江水","kind":"LineString","icon":null},"geometry":{"type":"LineString","coordinates":[[103.48282043655686,33.11708647226955],[103.51338492577264,33.07725605575624],[103.5745139042042,33.04594807040948],[103.5371573062738,32.91775407366695],[103.59489023034804,32.81791905528263],[103.6186626108492,32.640792874166884],[103.68658369799536,32.54923534488911],[103.7069600241392,32.4403893755843],[103.73179811794076,32.40026478444002],[103.75641530167458,32.32523536430815],[103.71511942679311,32.25774443683078],[103.7500818395256,32.134119965127574],[103.66005826028447,31.996618885228727],[103.6710704935862,31.898504381927175],[103.7674275349763,31.762840861469332],[103.85209303340874,31.726733580070903],[103.86653763469185,31.694934376679484],[103.85277234306469,31.63401042279772],[103.67657661023706,31.493264346454062],[103.60499709377584,31.422811725073494],[103.51414616903658,31.408714842650898],[103.47285029415511,31.288805876508654],[103.44256665257535,31.246448588913022],[103.47835641080597,31.036736284213244],[103.52791146066374,31.00134588183576],[103.5857256854978,31.01786303871188],[103.64457360299475,30.983648638975982],[103.65200990564327,30.85818644618596],[103.67184004603935,30.787940976284276],[103.71150032683147,30.67288310755753],[103.7511606076236,30.532070527202713],[103.81808733146033,30.474406434484944],[103.87509898509903,30.442356059975967],[103.87014144999999,30.350419928117073],[103.90732296324263,30.243408743212342],[103.87566786330173,30.171321174024037],[103.87566786330173,30.085600644601584],[103.80959446349136,30.01411005917321],[103.82060669679309,29.933025060530483],[103.87566786330173,29.84948613717598],[103.8563964550237,29.758707532272705],[103.82060669679309,29.756317509441477],[103.76829858860988,29.765877258754013],[103.75178023865729,29.751537292789678],[103.79032305521334,29.698939868720128],[103.75453329698273,29.617598753924337],[103.75453329698273,29.533796627254535],[103.78714938306884,29.487650711053575],[103.82433089631147,29.461755333485478],[103.82433089631147,29.342983627296725],[103.88630008504917,29.297597856296917],[103.87638501485115,29.2283997847111],[103.94579050623737,29.208929393061958],[103.9854507870295,29.17647051912235],[104.00775969497508,29.102859059903103],[104.08708025655935,29.087697216960315],[104.17135835324262,29.027027528969956],[104.23828507707935,29.016189901148156],[104.29529673071804,28.964153462667824],[104.2829028929705,28.90558118823542],[104.31016933601508,28.8686853748544],[104.35230838435673,28.851318104415608],[104.45145908633707,28.783992543520103],[104.50103443732722,28.773129507347576],[104.56796116116394,28.844804630104598],[104.62497281480263,28.864343829246106],[104.68942077108984,28.816574862550098],[104.72412351678297,28.762265340048078],[104.8232742187633,28.794854448293],[104.92738245584265,28.783992543520103],[105.01661808762493,28.831776457984315],[105.06619343861512,28.794854448293],[105.03644822802102,28.742706989340217],[105.07858727636264,28.73183965633755],[105.15047153529838,28.70140511272988],[105.17525921079347,28.720971193245838],[105.17525921079347,28.7709567643691],[105.19508935118954,28.786165014995365],[105.27193114522429,28.749226846585348],[105.34381540416003,28.7709567643691],[105.3958695226997,28.853489171875307],[105.46279624653643,28.879538445373164],[105.53468050547217,28.87736792196403],[105.5718620187148,28.942463887485005],[105.60160722930888,28.94897123698881],[105.65614011539807,28.907751121904294],[105.64622504520004,28.862172988436193],[105.77512095777446,28.90124118476695],[105.8494839842597,28.82526176029234],[105.90401688299475,28.836119363263144],[105.89658058034622,28.907751121904294],[105.8296538565095,28.9468021659055],[105.84948399445507,28.98150185515997],[105.85196276200458,29.02702753259757],[106.00812511762359,29.06820014242331],[106.04282786331672,29.085531060772368],[106.11719088980196,29.06820014242331],[106.12462719245049,29.15915492345215],[106.16428747324262,29.2240733544538],[106.23121419707934,29.258679706508193],[106.27831078052,29.28678874855808],[106.38737655269836,29.28678874855808],[106.44190943878755,29.35594728442447],[106.5187512328223,29.373229589716438],[106.5237087679213,29.461755337097696],[106.57328411891149,29.524324505708137],[106.59063549175805,29.586855001865484],[106.63277454009967,29.59978751294458],[106.72201017188198,29.578232406905304],[106.79141566326821,29.597632209560327],[106.86082115465445,29.586855001865484],[106.9247709727356,29.69236027483168],[106.9798095916675,29.75874375888009],[107.05013671585824,29.80385942993987],[107.12963694320432,29.777323261933873],[107.17550245898089,29.67907830982738],[107.22136797475747,29.66579458988134],[107.33450291367302,29.737505822399015],[107.42011854312264,29.710952076618426],[107.44458015153681,29.77997719532704],[107.4782148631063,29.809165819125887],[107.46292635784745,29.87282052026247],[107.4904456673134,29.899331334286092],[107.63721531779844,29.835693541298415],[107.73811945250691,29.883425691812352],[107.75952335986932,29.933784849912705],[107.85125439142246,29.978821452010113],[107.85125439142246,30.063540844592087],[108.02860105242522,30.27502210092631],[108.12644748608191,30.306705117621515],[108.12644748608191,30.375316525961658],[108.16619759975497,30.414878144774743],[108.2365247239457,30.433334748637577],[108.27933254545489,30.51239490421046],[108.3435442675421,30.56769880054835],[108.36189047385272,30.636126629450906],[108.42610219593993,30.720279093119522],[108.40469828857753,30.817488894735153],[108.49337161907891,30.86474462257324],[108.53312173275194,30.911977068384537],[108.59427575378737,30.922470003622173],[108.64319897061573,30.959186211557643],[108.78079551794545,30.93033894973632],[108.88475735370571,30.96967396563954],[109.04681550944962,30.935584554086216],[109.21498906729707,30.977539025221795],[109.37704722304098,30.98016056773446],[109.51158606931892,31.02995618896401],[109.61554790507917,31.035196320044882],[109.68247571243819,31.011219459134455],[109.72868284399472,31.027336015302136],[109.85099088606559,31.077106985848758],[109.96106812392938,31.074488110157404],[110.06197225863785,31.03257629054607],[110.19651110491581,31.04305597600658],[110.28212673436542,31.024715769564004],[110.36162696171148,31.066631050262572],[110.53314267555454,31.044526989669624],[110.6825690672761,31.009605068641328],[110.84557967642691,30.928070827237832],[110.97462974200462,30.869789479024963],[111.0493429378654,30.85229815813829],[111.1648087860139,30.85229815813829],[111.19876932958697,30.785218549032376],[111.27348252544775,30.767711817934725],[111.30744306902085,30.694732831375628],[111.4093246997401,30.601239157848326],[111.46705762381434,30.4374080051602],[111.52479054788859,30.3993363090024],[111.55535503710435,30.293829542481816],[111.60629585246399,30.282099550229933],[111.68100904832475,30.37883001436519],[111.74893013547093,30.41398102676514],[111.88137625540594,30.405194459707623],[112.01815334990518,30.289442142583635],[112.14754709120048,30.30608137045831],[112.227385782638,30.296573585969934],[112.26868165751947,30.24188593943896],[112.21637354933627,30.149085142642715],[112.23013884096342,30.09193351595474],[112.26868165751947,30.065727971191084],[112.3843101071876,30.0371321891069],[112.41459374876736,29.97037660458126],[112.38155704886218,29.84150700083779],[112.37329787388587,29.738769515943602],[112.45864268197427,29.767451049190562],[112.50269161518118,29.719643935334233],[112.60180171489671,29.695731833846352],[112.74220768949374,29.729207181363805],[112.91840342232136,29.784178152701394],[113.05605633859295,29.741159957153513],[113.02577269701321,29.683773648190677],[112.9211564806468,29.63592668102969],[112.96520541385371,29.473077015490578],[113.03678493031494,29.51141818874496],[113.13314197170504,29.48506019090962],[113.17168478826109,29.446709043742004],[113.20747454649171,29.50183425597824],[113.40294168759736,29.733988462596134],[113.6039149384829,29.848670795219082],[113.64796387168981,29.90596264185775],[113.82415960451745,29.92505260796071],[113.93152887920928,30.039515486292363],[114.07744097045718,30.087169387824968],[114.08570014543346,30.11575071297031],[113.9838369873925,30.19906567117609],[113.923269704233,30.184788106979745],[113.87371465437522,30.237129052492662],[113.93428193753472,30.289442142583635],[114.01136757064681,30.2823101806896],[114.06092262050458,30.244264296576514],[114.09395932040977,30.246642596153404],[114.12148990366408,30.348854987265284],[114.1765510701727,30.405857403313387],[114.24813058663393,30.46045350881094],[114.30043869334914,30.543475852293348],[114.34999374320691,30.63827168175015],[114.46011607622418,30.690369840480564],[114.52894253435997,30.678531816450924],[114.58806766461157,30.60513055350606],[114.62529957575008,30.567183500933737],[114.80149530857771,30.60747320859318],[114.83453200848291,30.54821784528857],[114.86206259173723,30.408231778556548],[115.06028279116832,30.396359305492123],[115.09882560772436,30.310834913036476],[115.10157866604979,30.227614584096152],[115.25574993227397,30.182408307809155],[115.31356415710803,30.084787233786273],[115.32457639040976,30.034748830695143],[115.38514367356926,29.95606599135529],[115.4236864901253,29.8773208286099],[115.47645680550144,29.842735940557397],[115.67418918340903,29.833940066995186],[115.7198197321569,29.81634599661824],[115.90466893023026,29.732335842764325],[115.99882770988486,29.756558973865396],[116.00928979651317,29.79590907663138],[116.04416341860748,29.84129381893385],[115.97441617441888,29.89875156459728],[115.95697936337173,29.93502360893405],[116.13483483605268,29.98940688873724],[116.16273373372812,30.019606959125586],[116.14878428489038,30.079979509841852],[116.17668318256584,30.086014740333642],[116.19760735582244,30.043760395429175],[116.23945570233558,29.98940688873724],[116.23248097791672,30.037722588199276],[116.27432932442987,30.05885330353006],[116.27781668663933,30.125234759631763],[116.33012711978077,30.08299717112041],[116.4138238128071,30.034703546608867],[116.43823534827311,30.04677916105751],[116.44172271048255,30.09204960254183],[116.46613424594857,30.119201923777634],[116.39638700175995,30.125234759631763],[116.42777326164483,30.15539340943116],[116.3894122773411,30.158408767410872],[116.30571558431477,30.212669438807108],[116.31269030873364,30.24882660711821],[116.35802601745623,30.2578638212554],[116.38592491513167,30.272923997026165],[116.39987436396937,30.22773654145855],[116.43823534827311,30.22773654145855],[116.42079853722596,30.191571618507695],[116.45218479711085,30.17348417413892],[116.46962160815798,30.203628069531657],[116.51146995467116,30.191571618507695],[116.5498309389749,30.212669438807108],[116.5289067657183,30.137299325578766],[116.59516664769748,30.125234759631763],[116.67886334072384,30.08299717112041],[116.71722432502754,30.04677916105751],[116.8112681860747,30.079513919352962],[116.86009125700673,30.145881504517703],[116.92983850119536,30.227271647965424],[116.9368132256142,30.368790161047965],[116.96819948549907,30.48606517208508],[117.0274846430594,30.50709960168997],[117.18441594248377,30.513108603269224],[117.21928956457806,30.555161212975648],[117.21231484015921,30.621207082202037],[117.24370110004408,30.660213023584706],[117.3936576750496,30.71719339834874],[117.48084173028533,30.76215413761717],[117.68659610064174,30.810089122891352],[117.78075488029636,31.007568025889594],[117.92722409309243,31.085250738062367],[118.11205429019225,31.210604130955232],[118.35268227830613,31.306000119898638],[118.43986633354191,31.609430021822426],[118.5305377509871,31.849687110663368],[118.64910806610771,31.988809518043777],[118.71643107045698,32.10912275753945],[118.74011170324202,32.16431279620905],[118.77564798479881,32.229505340970505],[118.8527101579029,32.25122846250593],[118.93175987696839,32.24788669549583],[119.01278308463304,32.25791172187377],[119.14716696761126,32.24788669549583],[119.24004517865862,32.22616297914253],[119.3152007630352,32.222017756133106],[119.33094663887188,32.22114926489096]]}},{"type":"Feature","properties":{"name":"彭蠡泽","kind":"Polygon","icon":null},"geometry":{"type":"Polygon","coordinates":[[[116.71722432502756,30.04677916105751],[116.67886334072384,30.08299717112041],[116.59516664769748,30.125234759631763],[116.5289067657183,30.137299325578766],[116.5498309389749,30.212669438807108],[116.51146995467116,30.191571618507695],[116.469621608158,30.203628069531657],[116.45218479711085,30.17348417413892],[116.42079853722596,30.191571618507695],[116.43823534827311,30.22773654145855],[116.39987436396937,30.22773654145855],[116.38592491513167,30.272923997026165],[116.35802601745624,30.2578638212554],[116.31269030873361,30.24882660711821],[116.30571558431477,30.212669438807108],[116.3894122773411,30.158408767410872],[116.4277732616448,30.15539340943116],[116.39638700175995,30.125234759631763],[116.46613424594857,30.119201923777634],[116.44172271048255,30.09204960254183],[116.43823534827311,30.04677916105751],[116.4138238128071,30.034703546608867],[116.33012711978077,30.08299717112041],[116.27781668663933,30.125234759631763],[116.27432932442989,30.05885330353006],[116.23248097791672,30.037722588199276],[116.23945570233556,29.98940688873724],[116.19760735582243,30.043760395429175],[116.17668318256584,30.086014740333642],[116.14878428489038,30.079979509841852],[116.16273373372812,30.019606959125586],[116.13483483605268,29.98940688873724],[115.95697936337173,29.93502360893405],[115.97441617441886,29.89875156459728],[116.04416341860747,29.84129381893385],[116.00928979651317,29.79590907663138],[115.99882770988488,29.756558973865396],[116.07328372533695,29.77622468659444],[116.11482990622646,29.737151087973213],[116.14252736015278,29.674000035446035],[116.11829208796725,29.580704537558322],[116.09405681578171,29.47526718419957],[116.0178888174843,29.445122051799608],[116.01442663574352,29.4209994973222],[116.0594349983738,29.309358208421866],[116.12521645144884,29.306339178237888],[116.15637608711597,29.34256164522641],[116.23254408541337,29.34256164522641],[116.21869535845019,29.363685475469307],[116.08367027055934,29.375754268812678],[116.10444336100407,29.424015129990593],[116.17022481407912,29.45115179493763],[116.17022481407912,29.574682507511753],[116.24639281237651,29.59274751983486],[116.22561972193176,29.61983897395374],[116.24985499411729,29.713098226848324],[116.20138444974624,29.664975215721263],[116.19792226800544,29.73113841321515],[116.29832553848838,29.800262403866828],[116.57876225949248,29.89635550211204],[116.71722432502756,30.04677916105751]]]}},{"type":"Feature","properties":{"name":"巨野泽","kind":"Polygon","icon":null},"geometry":{"type":"Polygon","coordinates":[[[116.16951625529667,35.68422282106304],[116.11955325501805,35.675986865635565],[116.06564473407218,35.60441161872621],[116.01482321220298,35.52821856624278],[115.93266380036215,35.509271067862244],[115.8854827308107,35.4774448557677],[115.87569745646337,35.442138334630016],[115.90187636071111,35.37295193564298],[115.92035245371952,35.3455200509297],[115.98094381271345,35.335783156731836],[116.02186078809206,35.33836670741978],[116.08390680488556,35.37412117488445],[116.13944814426459,35.42608992460123],[116.17678696549942,35.39893084932917],[116.21230559275394,35.42757879999635],[116.25265994179918,35.515554851101754],[116.26099869646939,35.56063023212451],[116.22439462977889,35.65131798367013],[116.16951625529667,35.68422282106304]]]}},{"type":"Feature","properties":{"name":"具区泽（震泽）","kind":"Polygon","icon":null},"geometry":{"type":"Polygon","coordinates":[[[120.30833055313505,31.31558989475611],[120.35877911486351,31.35823033510429],[120.40630819002094,31.37944360066329],[120.39290784131175,31.467535852447305],[120.29233188677199,31.43468536515562],[120.22243962297264,31.404066008377658],[120.21146240887168,31.43266766372903],[120.22582626433203,31.501569748857573],[120.16743676377061,31.52797666842935],[120.13653409422301,31.490081323780405],[120.09458121763896,31.468868170764594],[120.03049872980706,31.476288370671693],[120.02451377079397,31.409709868023064],[119.96279602322183,31.348095772521145],[119.92630255651385,31.30777052318422],[119.90899001730843,31.21251249225903],[119.9832613955358,31.047499575155285],[120.08880040798915,30.98011754132118],[120.17762542330965,30.915155067249405],[120.27242079905616,30.914729231538384],[120.33948116780739,30.938345745085293],[120.40362204998776,30.940449138463237],[120.48487109115355,31.004631136643166],[120.53799096347153,31.028287971432945],[120.58284872803942,31.06869493018197],[120.5778272757773,31.159426068794396],[120.5245614175881,31.11193428031703],[120.45228981494193,31.148058234464717],[120.44134179801524,31.181508389507954],[120.38016419816712,31.20801781805397],[120.3859739741346,31.24613937169602],[120.36937676569883,31.26766489331467],[120.32748228346324,31.25593567134914],[120.31638828066518,31.265518821012],[120.30815537008945,31.287002495844852],[120.30833055313505,31.31558989475611]]]}},{"type":"Feature","properties":{"name":"淮水","kind":"LineString","icon":null},"geometry":{"type":"LineString","coordinates":[[113.21784001482509,32.41639626910573],[113.30231849286184,32.4187652237567],[113.37202555557617,32.39651581970151],[113.41242791863083,32.36341518669379],[113.47880992121668,32.32881497315703],[113.57141819899677,32.33252273525577],[113.59758494144481,32.36122426187883],[113.62361560904425,32.367969048831775],[113.64818360651323,32.400780787207005],[113.68077084291122,32.41709244433379],[113.7164790271651,32.41282095428129],[113.73437989502118,32.41822666529894],[113.77985914738758,32.41802564503539],[113.79935025554478,32.41793949335676],[113.82214090979618,32.426065425081724],[113.87392159062036,32.39429685903264],[113.86398893362532,32.36416205553909],[113.88823375332919,32.344844919781295],[113.88644790543367,32.31877570698918],[113.91558251153288,32.30217314029889],[113.91082357941424,32.271856593421035],[113.93432350970839,32.26400754373106],[113.94195747392709,32.240885534733316],[114.01996798905338,32.2405400484869],[114.03221141132204,32.270089541741584],[114.01141743079329,32.2819360119227],[114.03221141132204,32.270089541741534],[114.05674068063716,32.30230250763662],[114.08805258858347,32.30510177020365],[114.07440310660381,32.34921997339432],[114.10251652838393,32.399005679724944],[114.11665231407747,32.437093817422195],[114.16196545279774,32.45449694048588],[114.18961070067918,32.42503417744442],[114.23826064310687,32.41895004077414],[114.26240816766924,32.38655728393663],[114.34229911486504,32.37152525094408],[114.35602913718114,32.34210082133533],[114.36635318603608,32.324433002079545],[114.42870802344379,32.28596560775197],[114.54001313258803,32.29134945614583],[114.59233693131377,32.31755833660781],[114.61662183602276,32.30863810629206],[114.7384181116159,32.32278673840154],[114.76977004969143,32.331459629581325],[114.86002593518327,32.30756093958709],[114.85286127524842,32.2752725125266],[114.96737335805827,32.23949580896336],[115.01958707457379,32.24808312484703],[115.03031114708023,32.292117471282815],[115.06873650757412,32.31838775349819],[115.12478708372998,32.37980841141073],[115.19765319688888,32.355997528677364],[115.2080054177266,32.3442054399395],[115.25341098456086,32.373367949909806],[115.29855655773703,32.364360131407196],[115.3682054910588,32.37873202839031],[115.36155535222474,32.422788977345114],[115.45557182082497,32.43997939509635],[115.5665839716453,32.4013386770449],[115.66064381633504,32.42440161140153],[115.67444872277113,32.4096669739838],[115.67444872277132,32.409666973983825],[115.67826312659537,32.45659852805271],[115.72368391592973,32.48573005266884],[115.76548020588243,32.49434353329809],[115.77917818255314,32.4649532110851],[115.81768897169214,32.499977958258405],[115.83185700248659,32.53509851234488],[115.91221484683622,32.58456655031214],[115.94699471136492,32.584413105923545],[115.97499266342524,32.607727463523226],[116.0305539391144,32.5957640808039],[116.03724712745377,32.560571722112144],[116.09969535295374,32.53977896922463],[116.12018686558794,32.48984436291595],[116.1443758591067,32.469206570302035],[116.1650198399202,32.439778451218835],[116.19281825836696,32.43672146461978],[116.21745152779131,32.47475017395064],[116.23483994701519,32.4746733646271],[116.28049931840228,32.53311804720355],[116.32912141373787,32.52410851961826],[116.36696925571151,32.47115652174196],[116.41201955634706,32.45042284951318],[116.4537967397313,32.45610572632501],[116.47452496837533,32.43841074319636],[116.48868790405493,32.47061883490366],[116.51996394793262,32.46754737998144],[116.52663507390116,32.51504083014985],[116.52663507390095,32.51504083014993],[116.52663507390095,32.51504083014991],[116.57234692324393,32.547760006763575],[116.62031954872069,32.54583560687111],[116.69116712319826,32.578546023902845],[116.74147832489405,32.63240169325488],[116.68897362437443,32.68238786622005],[116.70726979606141,32.70160749947504],[116.73697906428681,32.707372758726144],[116.74386835223586,32.743879303242906],[116.83980904142024,32.71505931809041],[116.87631507093782,32.66700983168697],[116.97457632223347,32.678543551537764],[117.0408444725689,32.68430997506529],[117.08655749481088,32.695841949082265],[117.07750371292526,32.759246982639155],[117.10498056791991,32.79957727206969],[117.13248197583178,32.855247958707324],[117.19189515099916,32.8514094777907],[117.21021567354508,32.876357280204004],[117.16915447719632,32.9281543861591],[117.2263285654058,32.95116770535557],[117.33146989701041,32.9530852702245],[117.44348936047375,32.96650731190544],[117.45493856559666,32.9780106478941],[117.54636233584057,32.976093506732056],[117.5851202536109,32.92623639788226],[117.62419039624773,32.92240032365804],[117.65160559379686,32.90897303851825],[117.6767576085416,32.92240032365804],[117.68595172154001,32.981844832400924],[117.72940488736333,33.00868047097883],[117.75915692295199,33.047006000949914],[117.77058820127698,33.04892193454435],[117.80485691773532,33.029761128720075],[117.88824145267728,33.04038603232937],[117.90268694008083,33.06592830937017],[117.87939773309827,33.11957421396204],[117.9056087815866,33.14151242733665],[117.93181595479597,33.13176267248805],[117.99879475410377,33.13907507296913],[118.02500159182213,33.13176267248805],[118.10363405961647,33.15369835557453],[118.17369277347133,33.21229259654876],[118.21097420180686,33.202603490700106],[118.21890839395563,33.172662998197026],[118.2134998222008,33.086991134758335],[118.22145102370567,33.059733813573565],[118.23241261225216,32.99431746832025],[118.27611452140097,32.969599907597996],[118.35396839321483,32.95154064188903],[118.40104639056031,32.94724468006081],[118.45332884738806,32.996071963576156],[118.49569565657673,33.01768032244025],[118.52867410816411,33.096495246384784],[118.55487486932402,33.130392870648066],[118.58778528348712,33.19823426028083],[118.62886802078374,33.27413577426968],[118.67650733168979,33.35943996803233],[118.80054634414613,33.4538137826726],[118.87230289977497,33.499565231641874],[118.94090448883578,33.56019651598926],[118.98978534343277,33.58434360011433],[119.02568913528127,33.61124604219208],[119.0825126867054,33.606939926398994],[119.11962400834358,33.56753765816272],[119.18464539693518,33.575374180089696],[119.2108461580953,33.60908587219813],[119.21753880174232,33.640164892558126],[119.208261004955,33.71454892361309],[119.24422432954965,33.75086476712935],[119.30427938964384,33.7438502998233],[119.35103420922427,33.688251837897916],[119.41114029738661,33.68934149536557],[119.47124638554897,33.690431139018294],[119.52198964061763,33.752356575785754],[119.54358977443526,33.829207804374164],[119.62361220465566,33.897647136931184],[119.66580053349671,33.978999153084025]]}},{"type":"Feature","properties":{"name":"济水","kind":"LineString","icon":null},"geometry":{"type":"LineString","coordinates":[[113.34402309957169,34.96090478765824],[113.40868231789763,34.96999662563103],[113.47168134914106,34.95535547713523],[113.53562066443291,34.926065333105655],[113.62494764903181,34.90678979709572],[113.6935883845657,34.88828102445265],[113.7537665636639,34.87593952586896],[113.81300445871369,34.91141633855136],[113.88822718258645,34.93223254855516],[114.00028016208964,34.94079662841919],[114.0466569216419,34.942908661407984],[114.10849260104492,34.967193130643146],[114.219281526642,34.97986043193092],[114.3249174789555,35.01468540736403],[114.4333335773283,35.02770517863109],[114.55251769439155,35.032910178016394],[114.71460809359758,35.01729418552768],[114.78294032071385,35.004278580000005],[114.84014869690421,34.96391704345877],[115.04037801357047,34.93526130428792],[115.20564665108493,34.99777000060601],[115.24696381166686,35.03811484592832],[115.36614792873011,35.095344309479536],[115.66490278216867,35.143438017824266],[115.80633460875603,35.240838120832606],[115.84288440465544,35.288845805934926],[115.92892279898776,35.344142887096346],[115.92035245371952,35.3455200509297],[115.90187636071111,35.37295193564298],[115.87569745646337,35.442138334630016],[115.8854827308107,35.4774448557677],[115.93266380036215,35.509271067862244],[116.01482321220298,35.52821856624278],[116.06564473407218,35.60441161872621],[116.11955325501805,35.675986865635565],[116.15661441687442,35.682096149369116],[116.17024344822711,35.84468191998961],[116.2322191891,35.91807268346259],[116.21117276731253,36.035734216345475],[116.20361500100482,36.158367869784506],[116.28783844372953,36.239157688633],[116.29896229465542,36.28144288214377],[116.40225519611025,36.328826326083586],[116.43085938420542,36.3275460710384],[116.45787445073977,36.348027627318366],[116.47217654478735,36.344187745760756],[116.49442424663917,36.37746042770024],[116.56434559531627,36.41967064969434],[116.59930626965483,36.423506805715206],[116.61837572722227,36.46185794516209],[116.58818241756626,36.48613719199511],[116.61043011941806,36.50402229596089],[116.60884099785721,36.528288329758446],[116.65492552312168,36.580625944311436],[116.71531214243372,36.61507281651853],[116.7470945736506,36.627827014088346],[116.76775315394156,36.65970327480199],[116.75345105989396,36.69411481693696],[116.78682261267168,36.70303381507649],[116.84720923198373,36.742519794608576],[116.92984355314759,36.74888659965338],[117.00135402338553,36.727237307478696],[117.02677996835902,36.75779923926046],[117.09193395235361,36.779439910116174],[117.1539096932265,36.83287890611143],[117.23495489857108,36.85449835062068],[117.38751056841204,36.9231313900515],[117.50351644235363,36.94853537269961],[117.55913569698313,36.963773697245365],[117.67990893560723,36.97012209918322],[117.77540756741524,36.994391228856756],[117.87060352290844,37.05260313347849],[117.94688135782893,37.11345472856394],[118.04858514013192,37.12105774489943],[118.1614127709518,37.148928931288026],[118.27582952333252,37.21096875689218],[118.33780526420543,37.21729648609012],[118.40137012663915,37.26663455661536],[118.4220287069301,37.30456493660249],[118.49195005560723,37.31846795173467],[118.53644545931084,37.348792877469975],[118.59206471394036,37.36773973885499],[118.64513492230735,37.42368430013355]]}},{"type":"Feature","properties":{"name":"泗水","kind":"LineString","icon":null},"geometry":{"type":"LineString","coordinates":[[117.5648720389238,35.57818076498134],[117.55438170294298,35.59183084168449],[117.55438170294298,35.61571287612937],[117.53549909817751,35.63617751755515],[117.4956358214504,35.63276710774897],[117.47255708229261,35.65322738367426],[117.45996867911563,35.65322738367426],[117.45367447752716,35.63276710774897],[117.42010540238854,35.65152256079281],[117.37394792407295,35.65834163399218],[117.34877111771898,35.68049960061458],[117.33198658014969,35.66004631132022],[117.27743683304944,35.69413221497325],[117.26065229548014,35.67538676962741],[117.23127935473386,35.687316199008826],[117.07812044941394,35.63276710774897],[117.06763011343311,35.61400725291429],[116.9837074255866,35.61741846297334],[116.94174608166333,35.59183084168449],[116.88300020017077,35.55087363182011],[116.84733305783598,35.54404539469049],[116.8242543186782,35.509895488380145],[116.79907751232423,35.4141984697968],[116.77599877316644,35.39367715775637],[116.74872389961631,35.379993381046134],[116.75082196681248,35.354330043761266],[116.7382335636355,35.33208188595066],[116.72984129485086,35.27557828547218],[116.71515482447771,35.22760490209972],[116.68578188373142,35.16073754039445],[116.67319348055445,35.1092636697472],[116.67738961494676,35.040581240188],[116.68368381653525,34.97527940955386],[116.79278331073574,34.95120770229098],[116.81206714410013,34.93970605861782],[116.86621566260145,34.85312849158411],[116.88090213297458,34.801460826845236],[116.97531515680195,34.72734733613501],[117.04455137427533,34.6566190426092],[117.10539532296406,34.62209551095748],[117.13476826371036,34.523624640211914],[117.14525859969116,34.452722636720836],[117.1893180093391,34.40253606428825],[117.21029868130074,34.32113523940268],[117.2061025469084,34.265668175464],[117.24386775643936,34.20322397380298],[117.26694649559714,34.241389822340174],[117.29422136914727,34.25179568863538],[117.30680977232424,34.192812105346114],[117.32569237708971,34.182398951235385],[117.35086918344366,34.196282871024636],[117.39283052736693,34.16156878679356],[117.4347918712902,34.16156878679356],[117.47045901362497,34.128577180873954],[117.55018556707917,34.12162993811312],[117.57536237343312,34.059079072222495],[117.60893144857174,34.048649435397984],[117.61522565016023,34.083409900692665],[117.63410825492569,34.1025220773067],[117.66138312847582,34.099047457080914],[117.68236380043744,34.07124535993745],[117.75789421949933,34.04691103784549],[117.7685322266967,34.060957090958254],[117.75789421949933,34.08862274044472],[117.76418842108781,34.1025220773067],[117.78307102585329,34.086885162853804],[117.80195363061875,34.092097788642995],[117.84181690734586,34.126840423702745],[117.85440531052284,34.156360442439095],[117.87748404968063,34.15809659291963],[117.87958211687679,34.142469953662484],[117.87118984809213,34.11120800366902],[117.89007245285761,34.09383525924861],[117.9131511920154,34.099047457080914],[117.95301446978706,34.05907906948104],[118.0138584184758,34.045172601911055],[118.02854488884896,34.01561378554775],[118.06222605241759,33.996632984949684],[118.13554631585326,33.92861643560256],[118.15442892061874,33.89727560856809],[118.20268446613049,33.84501529278185],[118.2362535412691,33.752610583652164],[118.28450908678086,33.708988844888125],[118.31178396033098,33.61119572850902],[118.34325496827343,33.57099851228502],[118.35374530288922,33.50629413629486],[118.39360857961633,33.46954849348102],[118.42507958755877,33.41352516413675],[118.53417908175925,33.36622735076063],[118.56560374375985,33.33528664023273],[118.63562214385611,33.28623496129709]]}},{"type":"Feature","properties":{"name":"雎水","kind":"LineString","icon":null},"geometry":{"type":"LineString","coordinates":[[114.42727840219345,34.75447827784092],[114.57321851111689,34.66878763615953],[114.64827342427752,34.65506889683624],[114.7163788084418,34.64592180889878],[114.79977315639808,34.59788304229233],[114.88733722175212,34.57385323311596],[114.94849307692006,34.56240802479534],[115.00547922654384,34.508594455335945],[115.0652451759125,34.466206115288266],[115.17643763985419,34.465060185520585],[115.29318972699294,34.418063523135444],[115.35851529955868,34.392834905863936],[115.48916644469013,34.36759868203656],[115.64622580319708,34.314807464134304],[115.79633562951835,34.27117227015286],[115.8797299774746,34.2367074283531],[115.93810602104398,34.24360152607056],[115.99092244141627,34.290696079455685],[116.03400952119367,34.307919203454354],[116.11045434015358,34.289547745626486],[116.19662849970837,34.251643926446945],[116.2285963330916,34.19418135233834],[116.26612378967191,34.165435369579384],[116.2911420940588,34.10561236440286],[116.3773162536136,34.045747030625506],[116.43569230397814,34.0134943237424],[116.48571840948375,33.989152269686585],[116.52742608673002,33.970855885816505],[116.63027911587608,33.97431385348],[116.6858753478469,33.96393952863585],[116.75398073201119,33.90051338733064],[116.84988423216089,33.85089278680956],[116.9013107467339,33.776985469030464],[116.94161801491276,33.751565085237786],[116.99582434108433,33.73769624376271],[117.03752151506245,33.74809808512131],[117.10840671082528,33.72844910362452],[117.16678275439466,33.740007873078255],[117.22376889216477,33.727293141038004],[117.25712663784302,33.73769624376271],[117.29882381182114,33.73654040574618],[117.35025032639417,33.776985469030464],[117.38916768877375,33.77467483663305],[117.44198410914606,33.78045130076652],[117.54900685308772,33.752720720792524],[117.60182327346003,33.785072191598076],[117.66158922282867,33.80586311465074],[117.75193309978128,33.85897252485303],[117.82559810714264,33.88666868025766],[117.91038236089817,33.90397421291655],[117.93818047688359,33.918969500297074],[118.02018491904057,33.91089544262108],[118.06605181041652,33.92819605800041],[118.13741701587489,33.92551201364607]]}},{"type":"Feature","properties":{"name":"沂水","kind":"LineString","icon":null},"geometry":{"type":"LineString","coordinates":[[117.94776876457212,36.03623871088578],[117.97976277156856,36.08107038760898],[118.02668731516331,36.108646414281246],[118.04801665316093,36.14999230733836],[118.1056058657545,36.17065708501451],[118.18025854874615,36.17065708501451],[118.21865135714188,36.1758224282992],[118.27410763593568,36.160325377044785],[118.27837350353519,36.13276749883824],[118.26770883453639,36.10175331479741],[118.27837350353519,36.08279417275096],[118.30396870913235,36.07762270394815],[118.30610164293212,36.053484686052315],[118.34662738512759,36.053484686052315],[118.3508932527271,36.02243921102947],[118.36582378932543,36.01726377539848],[118.40208366392139,36.02243921102947],[118.42554593571877,35.98965571218773],[118.43194473711806,35.97066956214968],[118.45967287651496,35.95685858432646],[118.4575399427152,35.9257750537763],[118.46607167791424,35.91195622754319],[118.49166688351139,35.9102287045159],[118.50019861871043,35.92232057355934],[118.52792675810733,35.906773545304084],[118.55992076510377,35.9015905236045],[118.55138902990471,35.88258320675938],[118.57698423550185,35.846283842134106],[118.60684530869852,35.81861602629368],[118.60044650729924,35.78055703010673],[118.5855159707009,35.768443526335865],[118.60471237489875,35.716507613467186],[118.60257944109901,35.68186485293417],[118.55138902990471,35.6489402923513],[118.51939501815495,35.57958105755173],[118.54499022375211,35.54140785160967],[118.51726208435521,35.46848126193281],[118.48100220975925,35.416350311601846],[118.49184179695054,35.350351940049045],[118.4576700313812,35.31900459161579],[118.48536010431854,35.27022845176991],[118.45117737415093,35.21794996812579],[118.41487142872818,35.16565256158353],[118.38498352863164,35.12728912913395],[118.38496077909308,35.095893326907664],[118.37213471614118,35.05053187630347],[118.41490595460904,34.95306335377082],[118.42107787695164,34.93182761514552],[118.39547994827106,34.905629912750705],[118.39377385832879,34.86898393179392],[118.3297125203082,34.83041692316916],[118.30835114033262,34.79710094095004],[118.29126742316704,34.77605540010034],[118.29124930331757,34.737464142250865],[118.27416557011868,34.70763675048508],[118.2762947682777,34.69710800661842],[118.25068076953856,34.66902771483183],[118.24000630308727,34.64796402322805],[118.22507318726177,34.64971944447042],[118.14400206138743,34.616362911535596],[118.11627053000005,34.553140656605194],[118.08214920745732,34.50922063259272],[118.04804938448264,34.39145181027392],[117.9820056060692,34.264792186849185],[117.93727671408024,34.21022576628308],[117.87748404968063,34.15809659291958]]}},{"type":"Feature","properties":{"name":"汶水","kind":"LineString","icon":null},"geometry":{"type":"LineString","coordinates":[[117.74697865926512,36.42897238870389],[117.71502274884399,36.423258506940016],[117.6635382264988,36.423258506940016],[117.63335764443441,36.410400735565894],[117.59252509222961,36.42754395768601],[117.57654713701905,36.418972819664035],[117.57122115194885,36.401827705478986],[117.58364845044596,36.38467880768932],[117.58187312208922,36.36466697914832],[117.58187312208922,36.337499835289925],[117.58364845044596,36.32033675524414],[117.57122115194885,36.3003083840805],[117.51796130124694,36.3003083840805],[117.48245473411235,36.27884370649036],[117.44872349533448,36.29458504741232],[117.43452086848063,36.28743028608102],[117.4203182416268,36.27311879529344],[117.37060904763835,36.26023621020393],[117.34752977900085,36.23589664078245],[117.34220379393068,36.215846598038624],[117.34220379393068,36.19149320825861],[117.3208998536499,36.17143178683559],[117.27829197308839,36.13846258605004],[117.24811139102398,36.11408513833778],[117.20727883881918,36.098307461998],[117.19307621196535,36.07535245826682],[117.18597489853843,36.04521384495771],[117.1913008836086,36.02942234579118],[117.20372818210572,36.01649967322605],[117.19485154032206,35.976282251838946],[117.13981636126344,35.96047694059686],[117.09365782398845,35.94323117466126],[117.0261953464327,35.94610573041886],[116.95873286887698,35.94610573041886],[116.91434965995872,35.95041736798654],[116.86464046597028,35.91160416072723],[116.84606589577378,35.899214176229115],[116.76469213433106,35.89355003272508],[116.71058055672636,35.89940573970493],[116.67598978569902,35.93329787487298],[116.60544252168457,35.92023096299682],[116.59123989483071,35.90441443742113],[116.52732807398844,35.88427974130606],[116.49004617849711,35.86701735498519],[116.45452775894006,35.85203202758391],[116.4219634150627,35.83840791467508],[116.38309629495106,35.84777474370988],[116.34527963754512,35.87161258924594],[116.30431159202203,35.88182661410636],[116.28645372602477,35.87416621892289],[116.25914169567604,35.848626218769766],[116.1629415414401,35.75761608911696]]}},{"type":"Feature","properties":{"name":"潍水","kind":"LineString","icon":null},"geometry":{"type":"LineString","coordinates":[[118.91069969271396,35.95623743515401],[118.94194495879071,35.89479019907745],[118.9843492484663,35.91286787187329],[119.0267535381419,35.88213337131596],[119.06692602309771,35.88213337131596],[119.12941655525123,35.91106029042301],[119.25886122899776,35.94178355789563],[119.28564288563499,35.95804398388469],[119.3124245422722,35.99777760052835],[119.38161048858501,36.00680517792024],[119.40169673106293,36.01944204984884],[119.42624658298035,36.02846714649692],[119.43294199713966,36.07718480127139],[119.41508755938153,36.10063069322481],[119.45079643489781,36.158313855941344],[119.43517380185945,36.18894078928003],[119.44633282545827,36.228557871301],[119.46865087265594,36.271753628057944],[119.50435974817225,36.314925500901396],[119.48873711513386,36.338300288998376],[119.46865087265594,36.35987079221643],[119.44633282545827,36.38502882528774],[119.45972365377688,36.41915885436765],[119.45302823961758,36.429933643673266],[119.42847838770014,36.44429770334012],[119.4240147782606,36.467633629508285],[119.44186921601873,36.48916825147469],[119.39276951218385,36.510696888383904],[119.38830590274432,36.55015050696586],[119.38384229330478,36.59854334446527],[119.39276951218385,36.61108468456338],[119.39946492634314,36.63078838456351],[119.38607409802454,36.66660038908733],[119.39276951218385,36.69523800042501],[119.41508755938153,36.71670920886181],[119.43294199713966,36.71849820564929],[119.45079643489781,36.77572410034677],[119.42178297354081,36.79895992772618],[119.42847838770014,36.83290730645132],[119.45526004433734,36.84898238827793],[119.46641906793619,36.875766681551184],[119.46195545849666,36.897187355900016],[119.41731936410129,36.92395474635319],[119.4307101924199,36.95249627513939],[119.45972365377688,36.99528852100344],[119.47534628681527,37.01667561984222],[119.45749184905712,37.02914864853655],[119.45297408951716,37.05072342012379]]}},{"type":"Feature","properties":{"name":"胶水","kind":"LineString","icon":null},"geometry":{"type":"LineString","coordinates":[[119.77970511855538,35.89914713992109],[119.77691834965076,35.93525766890671],[119.71282266484431,36.02996934186037],[119.7016755892258,36.07728253462079],[119.7406903538906,36.12456727798769],[119.7406903538906,36.144823455264294],[119.72396974046282,36.17182355688242],[119.72396974046282,36.1830708547633],[119.74626389169985,36.18756932181536],[119.74626389169985,36.20556060627131],[119.77970511855538,36.20106317274594],[119.79363896307854,36.22804389743346],[119.78806542526928,36.257262515087724],[119.8019992697924,36.33587371647973],[119.79363896307854,36.37178387384046],[119.75183742950911,36.46372801007285],[119.76855804293687,36.51749844217656],[119.76019773622298,36.55780176447743],[119.74905066060447,36.577945546868264],[119.72118297155819,36.58913426690986],[119.70724912703507,36.6070328455596],[119.65430051784712,36.62940022921027],[119.62364605989622,36.64728946344931],[119.59577837084993,36.68305546813246],[119.59020483304067,36.70540077979701],[119.54561653056662,36.7255060070335],[119.53446945494811,36.77686212267904],[119.56791068180365,36.810336718004166],[119.5929916019453,36.84825690662487],[119.60413867756381,36.86832469060965],[119.60413867756381,36.928496419143215],[119.59020483304067,36.95967789290855],[119.62364605989622,37.01977754483934],[119.58452066486869,37.05193025765544]]}},{"type":"Feature","properties":{"name":"射阳湖-淮水间某水","kind":"LineString","icon":null},"geometry":{"type":"LineString","coordinates":[[119.48955292533218,33.383808573191224],[119.45186779642958,33.40249022180011],[119.40711670585775,33.41428708866545],[119.36825391667693,33.432962184327636],[119.30583792193201,33.46637074803481],[119.25990917108197,33.47619434673358],[119.23753362579605,33.4811057284634],[119.19867083689347,33.4938740178105],[119.16334102854728,33.52725910379511],[119.16129968172565,33.572560584580145]]}},{"type":"Feature","properties":{"name":"邗沟","kind":"LineString","icon":null},"geometry":{"type":"LineString","coordinates":[[119.61246459451255,33.11119647748191],[119.57825216917811,33.0932841910698],[119.5461780204271,33.06999276164109],[119.5269335311765,33.062824927201255],[119.44354074442387,33.04131792146971],[119.41574314883965,32.99649479232626],[119.40077521275585,32.95344315633886],[119.41360487225626,32.89780374357158],[119.43712591467367,32.82775610062835],[119.44140246784048,32.77203775961611],[119.45423212734089,32.72168151465795],[119.46064695709107,32.68389565783642],[119.47561489317488,32.653295391623075],[119.47133834000809,32.60827596952307],[119.4927211058421,32.52177522646021],[119.47989144634168,32.45864921763138],[119.45793905499386,32.404943423478514],[119.4250433516619,32.35899907360308],[119.40479984191914,32.30126843845036],[119.39377672013161,32.226571113905216]]}}]}